{
  "type": "FeatureCollection",
  "generator": "overpass-turbo",
  "copyright": "The data included in this document is from www.openstreetmap.org. The data is made available under ODbL.",
  "timestamp": "2026-06-29T08:27:29Z",
  "features": [
    {
      "type": "Feature",
      "properties": {
        "@id": "way/37561249",
        "addr:housenumber": "31",
        "addr:postcode": "50076",
        "addr:street": "вулиця Володимира Зінченка",
        "building": "retail",
        "email": "contactcenter@metro.ua",
        "name": "METRO Кривий Ріг",
        "name:en": "METRO",
        "name:uk": "METRO Кривий Ріг",
        "opening_hours": "Mo-Su 07:00-20:00",
        "operator": "METRO ТЦ N°20",
        "payment:cash": "yes",
        "payment:credit_cards": "yes",
        "payment:mastercard": "yes",
        "payment:visa": "yes",
        "phone": "0-800-501-401",
        "phone:UA": "0 800 501 401",
        "shop": "supermarket",
        "website": "https://www.metro.ua/stores/kruvuj-rig-tz20",
        "@geometry": "center"
      },
      "geometry": {
        "type": "Point",
        "coordinates": [
          33.4225808,
          47.9307881
        ]
      },
      "id": "way/37561249"
    },
    {
      "type": "Feature",
      "properties": {
        "@id": "way/66771051",
        "addr:housenumber": "9а",
        "addr:postcode": "53860",
        "addr:street": "проспект Незалежності",
        "building": "yes",
        "name": "Електроніка",
        "name:uk": "Електроніка",
        "shop": "electronics",
        "@geometry": "center"
      },
      "geometry": {
        "type": "Point",
        "coordinates": [
          33.6492521,
          47.5677509
        ]
      },
      "id": "way/66771051"
    },
    {
      "type": "Feature",
      "properties": {
        "@id": "way/107095890",
        "addr:housenumber": "29б",
        "addr:postcode": "50006",
        "addr:street": "вулиця Соборності",
        "building": "retail",
        "building:levels": "1",
        "name": "Аркада",
        "name:ru": "Аркада",
        "name:uk": "Аркада",
        "shop": "department_store",
        "@geometry": "center"
      },
      "geometry": {
        "type": "Point",
        "coordinates": [
          33.394818,
          47.8997265
        ]
      },
      "id": "way/107095890"
    },
    {
      "type": "Feature",
      "properties": {
        "@id": "way/107095891",
        "addr:housenumber": "35а",
        "addr:postcode": "50006",
        "addr:street": "вулиця Соборності",
        "building": "yes",
        "shop": "shoes",
        "@geometry": "center"
      },
      "geometry": {
        "type": "Point",
        "coordinates": [
          33.3995733,
          47.9002202
        ]
      },
      "id": "way/107095891"
    },
    {
      "type": "Feature",
      "properties": {
        "@id": "way/107096004",
        "addr:housenumber": "12",
        "addr:postcode": "50006",
        "addr:street": "проспект Металургів",
        "amenity": "dentist",
        "building": "yes",
        "building:levels": "4",
        "name": "Стоматологічна поліклініка №2",
        "name:ru": "Стоматологическая поликлиника №2",
        "name:uk": "Стоматологічна поліклініка №2",
        "roof:shape": "hipped",
        "@geometry": "center"
      },
      "geometry": {
        "type": "Point",
        "coordinates": [
          33.3956843,
          47.8947151
        ]
      },
      "id": "way/107096004"
    },
    {
      "type": "Feature",
      "properties": {
        "@id": "way/107117243",
        "addr:housenumber": "36",
        "addr:postcode": "50000-50479",
        "addr:street": "проспект Металургів",
        "brand": "Фокстрот",
        "brand:en": "Foxtrot",
        "brand:uk": "Фокстрот",
        "brand:wikidata": "Q16721578",
        "building": "yes",
        "building:levels": "3",
        "contact:phone": "+380 564 09 4343",
        "contact:website": "https://www.foxtrot.com.ua/",
        "name": "Фокстрот",
        "name:en": "Foxtrot",
        "name:uk": "Фокстрот",
        "opening_hours": "Mo-Su 09:00-20:00",
        "operator": "Фокстрот",
        "phone:UA": "0 800 300 353",
        "shop": "electronics",
        "wheelchair": "limited",
        "@geometry": "center"
      },
      "geometry": {
        "type": "Point",
        "coordinates": [
          33.3941006,
          47.9022389
        ]
      },
      "id": "way/107117243"
    },
    {
      "type": "Feature",
      "properties": {
        "@id": "way/107117249",
        "addr:housenumber": "2а",
        "addr:postcode": "50000-50479",
        "addr:street": "проспект Металургів",
        "building": "yes",
        "name": "Європейський дім торгівлі",
        "name:ru": "Европейский дом торговли",
        "name:uk": "Європейський дім торгівлі",
        "shop": "department_store",
        "@geometry": "center"
      },
      "geometry": {
        "type": "Point",
        "coordinates": [
          33.3951431,
          47.9032313
        ]
      },
      "id": "way/107117249"
    },
    {
      "type": "Feature",
      "properties": {
        "@id": "way/107121157",
        "addr:housenumber": "34",
        "addr:postcode": "50006",
        "addr:street": "вулиця Соборності",
        "building": "yes",
        "name": "Водолей",
        "name:uk": "Водолей",
        "shop": "supermarket",
        "@geometry": "center"
      },
      "geometry": {
        "type": "Point",
        "coordinates": [
          33.4060695,
          47.9004417
        ]
      },
      "id": "way/107121157"
    },
    {
      "type": "Feature",
      "properties": {
        "@id": "way/107177984",
        "addr:housenumber": "49",
        "addr:postcode": "50006",
        "addr:street": "вулиця Соборності",
        "brand": "АТБ-Маркет",
        "brand:en": "ATB-Market",
        "brand:uk": "АТБ-Маркет",
        "brand:wikidata": "Q4054103",
        "brand:wikipedia": "uk:АТБ-Маркет",
        "building:levels": "2",
        "name": "АТБ-Маркет",
        "name:en": "ATB-Market",
        "name:ru": "АТБ-Маркет",
        "name:uk": "АТБ-Маркет",
        "opening_hours": "24/7",
        "operator": "АТБ",
        "shop": "supermarket",
        "website": "https://www.atbmarket.com/uk",
        "@geometry": "center"
      },
      "geometry": {
        "type": "Point",
        "coordinates": [
          33.407078,
          47.9013014
        ]
      },
      "id": "way/107177984"
    },
    {
      "type": "Feature",
      "properties": {
        "@id": "way/107196115",
        "addr:housenumber": "98",
        "addr:postcode": "50006",
        "addr:street": "вулиця Соборності",
        "brand": "АТБ-маркет",
        "brand:en": "ATB-Market",
        "brand:uk": "АТБ-маркет",
        "brand:wikidata": "Q4054103",
        "brand:wikipedia": "uk:АТБ-Маркет",
        "building": "yes",
        "name": "АТБ-Маркет",
        "name:en": "ATB-Market",
        "name:ru": "АТБ-Маркет",
        "name:uk": "АТБ-Маркет",
        "operator": "АТБ",
        "shop": "supermarket",
        "website": "https://www.atbmarket.com/uk",
        "@geometry": "center"
      },
      "geometry": {
        "type": "Point",
        "coordinates": [
          33.4244475,
          47.8990314
        ]
      },
      "id": "way/107196115"
    },
    {
      "type": "Feature",
      "properties": {
        "@id": "way/107223226",
        "addr:housenumber": "42",
        "addr:postcode": "50000-50479",
        "addr:street": "проспект Металургів",
        "building": "retail",
        "name": "Галерея-Нова ТЦ",
        "name:uk": "Галерея-Нова ТЦ",
        "shop": "mall",
        "@geometry": "center"
      },
      "geometry": {
        "type": "Point",
        "coordinates": [
          33.3927965,
          47.9093418
        ]
      },
      "id": "way/107223226"
    },
    {
      "type": "Feature",
      "properties": {
        "@id": "way/107223262",
        "addr:housenumber": "40",
        "addr:postcode": "50000-50479",
        "addr:street": "проспект Металургів",
        "building": "yes",
        "internet_access": "wlan",
        "name": "Аврора",
        "name:ru": "Аврора",
        "name:uk": "Аврора",
        "stars": "4",
        "tourism": "hotel",
        "@geometry": "center"
      },
      "geometry": {
        "type": "Point",
        "coordinates": [
          33.3930877,
          47.9089653
        ]
      },
      "id": "way/107223262"
    },
    {
      "type": "Feature",
      "properties": {
        "@id": "way/107420490",
        "addr:housenumber": "8",
        "addr:postcode": "50055",
        "addr:street": "Магістральна вулиця",
        "air_conditioning": "yes",
        "building": "hotel",
        "building:levels": "4",
        "contact:email": "kryvyi.rih.hotel@raziotel.com",
        "internet_access": "wlan",
        "name": "Raziotel",
        "name:uk": "Raziotel",
        "old_name": "Домашній затишок",
        "phone": "+380 564 04 8008;+380 564 04 8011",
        "roof:levels": "0",
        "roof:shape": "flat",
        "tourism": "hotel",
        "website": "www.kr-hotels.com.ua",
        "wheelchair": "no",
        "@geometry": "center"
      },
      "geometry": {
        "type": "Point",
        "coordinates": [
          33.4579111,
          47.9047464
        ]
      },
      "id": "way/107420490"
    },
    {
      "type": "Feature",
      "properties": {
        "@id": "way/107458767",
        "addr:housenumber": "44а",
        "addr:postcode": "50002",
        "addr:street": "вулиця Чкалова",
        "amenity": "bank",
        "brand": "Ощадбанк",
        "brand:en": "Oschadbank",
        "brand:uk": "Ощадбанк",
        "brand:wikidata": "Q4340839",
        "brand:wikipedia": "uk:Ощадбанк",
        "building": "yes",
        "building:levels": "2",
        "contact:facebook": "https://www.facebook.com/oschadbank",
        "contact:instagram": "https://www.instagram.com/oschadbank_official",
        "contact:twitter": "http://twitter.com/ua_oschadbank",
        "contact:youtube": "http://www.youtube.com/channel/UCtA26dq4YyHMc0bMZfPIaXA",
        "name": "Ощадбанк",
        "name:de": "Oschtschadbank",
        "name:en": "Oschadbank",
        "name:hu": "Takarékbank",
        "name:ru": "Ощадбанк",
        "name:uk": "Ощадбанк",
        "official_name": "Акціонерне товариство \"Державний ощадний банк України\"",
        "official_name:en": "Joint Stock Company \"State Savings Bank of Ukraine\"",
        "official_name:uk": "Акціонерне товариство \"Державний ощадний банк України\"",
        "opening_hours": "Mo-Fr 00:00-24:00; Su 08:00-17:00; Sa 09:00-13:00",
        "phone": "+380 564 05 5236",
        "roof:shape": "flat",
        "short_name:en": "JSC \"Oschadbank\"",
        "short_name:uk": "АТ \"Ощадбанк\"",
        "@geometry": "center"
      },
      "geometry": {
        "type": "Point",
        "coordinates": [
          33.3539995,
          47.9030968
        ]
      },
      "id": "way/107458767"
    },
    {
      "type": "Feature",
      "properties": {
        "@id": "way/107459170",
        "addr:housenumber": "13-О",
        "addr:postcode": "50002",
        "addr:street": "вулиця Гірничих Інженерів",
        "amenity": "clinic",
        "building:part": "yes",
        "name": "Медіком",
        "name:ru": "Медиком",
        "name:uk": "Медіком",
        "@geometry": "center"
      },
      "geometry": {
        "type": "Point",
        "coordinates": [
          33.349745,
          47.9085214
        ]
      },
      "id": "way/107459170"
    },
    {
      "type": "Feature",
      "properties": {
        "@id": "way/107459244",
        "addr:housenumber": "80",
        "addr:postcode": "50007",
        "addr:street": "Гетьманська вулиця",
        "building": "yes",
        "contact:phone": "+380 67 564 8999;+380 564 26 6545",
        "email": "gkukrainochka@gmail.com",
        "fax": "+380 (564) 26-67-17",
        "name": "Україночка",
        "name:uk": "Україночка",
        "roof:shape": "hipped",
        "stars": "3",
        "tourism": "hotel",
        "website": "https://uahotel.com.ua/",
        "@geometry": "center"
      },
      "geometry": {
        "type": "Point",
        "coordinates": [
          33.3758344,
          47.9071561
        ]
      },
      "id": "way/107459244"
    },
    {
      "type": "Feature",
      "properties": {
        "@id": "way/115287906",
        "addr:housenumber": "5",
        "addr:postcode": "50099",
        "addr:street": "площа Визволення",
        "amenity": "dentist",
        "building": "yes",
        "name": "Стоматологічна поліклініка №1",
        "name:ru": "Стоматологическая поликлиника №1",
        "name:uk": "Стоматологічна поліклініка №1",
        "@geometry": "center"
      },
      "geometry": {
        "type": "Point",
        "coordinates": [
          33.3400347,
          47.9089137
        ]
      },
      "id": "way/115287906"
    },
    {
      "type": "Feature",
      "properties": {
        "@id": "way/115288431",
        "addr:housenumber": "5",
        "addr:postcode": "50000",
        "addr:street": "Поштовий проспект",
        "amenity": "bank",
        "atm": "yes",
        "building": "yes",
        "building:levels": "3",
        "name": "Промінвест банк",
        "name:uk": "Промінвест банк",
        "@geometry": "center"
      },
      "geometry": {
        "type": "Point",
        "coordinates": [
          33.340776,
          47.9023282
        ]
      },
      "id": "way/115288431"
    },
    {
      "type": "Feature",
      "properties": {
        "@id": "way/115297380",
        "addr:housenumber": "2б",
        "addr:postcode": "50000",
        "addr:street": "Каунаська вулиця",
        "building": "yes",
        "building:levels": "2",
        "historic": "building",
        "name": "Майстерня тіла",
        "name:ru": "Мастерская тела",
        "name:uk": "Майстерня тіла",
        "old_name": "Готель «Европейские номера»",
        "shop": "beauty",
        "@geometry": "center"
      },
      "geometry": {
        "type": "Point",
        "coordinates": [
          33.3445668,
          47.9006405
        ]
      },
      "id": "way/115297380"
    },
    {
      "type": "Feature",
      "properties": {
        "@id": "way/115297837",
        "addr:housenumber": "39а",
        "addr:postcode": "50000",
        "addr:street": "Поштовий проспект",
        "brand": "АТБ-маркет",
        "brand:en": "ATB-Market",
        "brand:uk": "АТБ-маркет",
        "brand:wikidata": "Q4054103",
        "brand:wikipedia": "uk:АТБ-Маркет",
        "building": "yes",
        "building:levels": "1",
        "name": "АТБ-Маркет",
        "name:en": "ATB-Market",
        "name:ru": "АТБ-Маркет",
        "name:uk": "АТБ-Маркет",
        "opening_hours": "24/7",
        "operator": "АТБ",
        "shop": "supermarket",
        "website": "https://www.atbmarket.com/uk",
        "@geometry": "center"
      },
      "geometry": {
        "type": "Point",
        "coordinates": [
          33.3434298,
          47.907264
        ]
      },
      "id": "way/115297837"
    },
    {
      "type": "Feature",
      "properties": {
        "@id": "way/116936842",
        "addr:housenumber": "35б",
        "addr:postcode": "50000",
        "addr:street": "Поштовий проспект",
        "building": "retail",
        "building:levels": "2",
        "name": "ТЦ \"Ліберті\"",
        "name:ru": "Либерти торговый центр",
        "name:uk": "ТЦ \"Ліберті\"",
        "shop": "mall",
        "@geometry": "center"
      },
      "geometry": {
        "type": "Point",
        "coordinates": [
          33.3426971,
          47.9061131
        ]
      },
      "id": "way/116936842"
    },
    {
      "type": "Feature",
      "properties": {
        "@id": "way/118442314",
        "addr:housenumber": "93",
        "addr:postcode": "50024",
        "addr:street": "Кривбасівська вулиця",
        "amenity": "cafe",
        "building": "yes",
        "name": "Лаванда",
        "name:en": "Lavanda",
        "name:ru": "Лаванда",
        "name:uk": "Лаванда",
        "opening_hours": "Mo-Su 09:00-22:00",
        "phone": "+380 98 559 5068",
        "@geometry": "center"
      },
      "geometry": {
        "type": "Point",
        "coordinates": [
          33.3336917,
          47.9160351
        ]
      },
      "id": "way/118442314"
    },
    {
      "type": "Feature",
      "properties": {
        "@id": "way/118442320",
        "addr:housenumber": "17а",
        "addr:postcode": "50069",
        "addr:street": "проспект Миру",
        "amenity": "restaurant",
        "building": "retail",
        "cuisine": "georgian",
        "instagram": "https://www.instagram.com/puri_chveni_kr/",
        "internet_access": "wlan",
        "internet_access:ssid": "Puri Chveni",
        "name": "Пурі Чвені",
        "opening_hours": "Mo-Su 11:00-22:00",
        "outdoor_seating": "yes",
        "phone": "+380671227373",
        "website": "https://kr.purichveni.com.ua/",
        "@geometry": "center"
      },
      "geometry": {
        "type": "Point",
        "coordinates": [
          33.3816321,
          47.905933
        ]
      },
      "id": "way/118442320"
    },
    {
      "type": "Feature",
      "properties": {
        "@id": "way/124856092",
        "addr:housenumber": "21а",
        "addr:postcode": "50000-50479",
        "addr:street": "вулиця Юрія Камінського",
        "amenity": "bank",
        "atm": "yes",
        "building": "yes",
        "building:levels": "1",
        "contact:email": "ccd@alfabank.kiev.ua",
        "contact:facebook": "https://www.facebook.com/AlfaBankUkraine/",
        "contact:phone": "+380 564 99 0027",
        "contact:website": "https://alfabank.ua/",
        "name": "Альфа-Банк",
        "name:uk": "Альфа-Банк",
        "opening_hours": "Mo-Fr 09:00-18:00",
        "operator": "Альфа-Банк",
        "@geometry": "center"
      },
      "geometry": {
        "type": "Point",
        "coordinates": [
          33.3928501,
          47.9018387
        ]
      },
      "id": "way/124856092"
    },
    {
      "type": "Feature",
      "properties": {
        "@id": "way/124856103",
        "addr:housenumber": "30-А",
        "addr:postcode": "50000-50479",
        "addr:street": "вулиця Героїв АТО",
        "brand": "Сільпо",
        "brand:en": "Silpo",
        "brand:wikidata": "Q4419434",
        "brand:wikipedia": "uk:Сільпо (торговельна мережа)",
        "building": "yes",
        "building:levels": "2",
        "contact:email": "program@silpo.ua",
        "contact:facebook": "https://www.facebook.com/silpo",
        "contact:instagram": "https://www.instagram.com/silpoua/",
        "contact:telegram": "https://t.me/silposilpo",
        "contact:viber": "https://invite.viber.com/?g2=AQAt15SGGIlJkUpcckQJ1mAV5nsCAESEJ6JHLm0UCKWWPGQtSUDjRrHVW8Lmj4Xd&lang=uk",
        "contact:website": "https://silpo.ua",
        "name": "Сільпо",
        "name:en": "Silpo",
        "name:uk": "Сільпо",
        "opening_hours": "Mo-Su 8:00-22:00",
        "payment:mastercard": "yes",
        "payment:visa": "yes",
        "phone:UA": "0 800 301 707",
        "shop": "supermarket",
        "@geometry": "center"
      },
      "geometry": {
        "type": "Point",
        "coordinates": [
          33.3971027,
          47.9066619
        ]
      },
      "id": "way/124856103"
    },
    {
      "type": "Feature",
      "properties": {
        "@id": "way/125018810",
        "addr:housenumber": "26а",
        "addr:postcode": "50076",
        "addr:street": "вулиця Павла Глазового",
        "amenity": "restaurant",
        "building": "yes",
        "name": "Святошин",
        "name:ru": "Святошин",
        "name:uk": "Святошин",
        "@geometry": "center"
      },
      "geometry": {
        "type": "Point",
        "coordinates": [
          33.4244434,
          47.9350924
        ]
      },
      "id": "way/125018810"
    },
    {
      "type": "Feature",
      "properties": {
        "@id": "way/125744662",
        "addr:housenumber": "27а",
        "addr:postcode": "50071",
        "addr:street": "вулиця Володимира Великого",
        "amenity": "cafe",
        "building": "yes",
        "building:levels": "1",
        "name": "Вилен",
        "name:ru": "Вилен",
        "name:uk": "Вилен",
        "@geometry": "center"
      },
      "geometry": {
        "type": "Point",
        "coordinates": [
          33.4189841,
          47.9433539
        ]
      },
      "id": "way/125744662"
    },
    {
      "type": "Feature",
      "properties": {
        "@id": "way/133378189",
        "addr:housenumber": "28а",
        "addr:postcode": "50000",
        "addr:street": "Свято-Миколаївська вулиця",
        "building": "yes",
        "name": "Вина світу",
        "name:uk": "Вина світу",
        "roof:shape": "flat",
        "shop": "convenience",
        "@geometry": "center"
      },
      "geometry": {
        "type": "Point",
        "coordinates": [
          33.3361006,
          47.9020449
        ]
      },
      "id": "way/133378189"
    },
    {
      "type": "Feature",
      "properties": {
        "@id": "way/134772280",
        "addr:housenumber": "6б",
        "addr:postcode": "50031",
        "addr:street": "Женевська вулиця",
        "amenity": "hospital",
        "healthcare": "hospital",
        "name": "Криворізька міська лікарня №9",
        "name:ru": "Криворожская городская больница №9",
        "name:uk": "Криворізька міська лікарня №9",
        "phone": "+380 564 66 2325",
        "source": "http://krogerc.info/ua/hospitals/9.html",
        "@geometry": "center"
      },
      "geometry": {
        "type": "Point",
        "coordinates": [
          33.4417983,
          47.9832198
        ]
      },
      "id": "way/134772280"
    },
    {
      "type": "Feature",
      "properties": {
        "@id": "way/135196739",
        "addr:housenumber": "23",
        "addr:postcode": "50079",
        "addr:street": "Ботанічна вулиця",
        "amenity": "restaurant",
        "building": "yes",
        "name": "Колиба",
        "name:uk": "Колиба",
        "@geometry": "center"
      },
      "geometry": {
        "type": "Point",
        "coordinates": [
          33.5865327,
          48.1479907
        ]
      },
      "id": "way/135196739"
    },
    {
      "type": "Feature",
      "properties": {
        "@id": "way/135197468",
        "addr:housenumber": "10",
        "addr:postcode": "50079",
        "addr:street": "вулиця Василя Сліпака",
        "building": "yes",
        "shop": "doityourself",
        "@geometry": "center"
      },
      "geometry": {
        "type": "Point",
        "coordinates": [
          33.553332,
          48.1434256
        ]
      },
      "id": "way/135197468"
    },
    {
      "type": "Feature",
      "properties": {
        "@id": "way/135197584",
        "addr:housenumber": "1",
        "addr:postcode": "50079",
        "addr:street": "вулиця Антона Ігнатченка",
        "brand": "АТБ-Маркет",
        "brand:en": "ATB-Market",
        "brand:uk": "АТБ-Маркет",
        "brand:wikidata": "Q4054103",
        "building": "yes",
        "name": "АТБ-Маркет",
        "name:en": "ATB-Market",
        "name:uk": "АТБ-Маркет",
        "opening_hours": "05:00-23:00",
        "shop": "supermarket",
        "@geometry": "center"
      },
      "geometry": {
        "type": "Point",
        "coordinates": [
          33.5651624,
          48.1434568
        ]
      },
      "id": "way/135197584"
    },
    {
      "type": "Feature",
      "properties": {
        "@id": "way/135198366",
        "addr:housenumber": "5а",
        "addr:postcode": "50079",
        "addr:street": "вулиця Володимира Терещенка",
        "building": "yes",
        "name": "Будинок торгівлі",
        "name:ru": "Дом торговли",
        "name:uk": "Будинок торгівлі",
        "shop": "mall",
        "@geometry": "center"
      },
      "geometry": {
        "type": "Point",
        "coordinates": [
          33.5633014,
          48.1454172
        ]
      },
      "id": "way/135198366"
    },
    {
      "type": "Feature",
      "properties": {
        "@id": "way/140107234",
        "addr:housenumber": "15А",
        "addr:postcode": "50024",
        "addr:street": "вулиця Петра Калнишевського",
        "brand": "Varus",
        "brand:wikidata": "Q114944216",
        "building": "yes",
        "contact:phone": "+380 564 99 1506",
        "contact:website": "https://varus.ua/",
        "name": "Varus",
        "name:uk": "Varus",
        "opening_hours": "Mo-Su 07:00-23:00",
        "operator": "ОМЕГА",
        "phone:UA": "0 800 307 080",
        "roof:shape": "flat",
        "shop": "supermarket",
        "website": "https://varus.ua/",
        "@geometry": "center"
      },
      "geometry": {
        "type": "Point",
        "coordinates": [
          33.3367855,
          47.9133658
        ]
      },
      "id": "way/140107234"
    },
    {
      "type": "Feature",
      "properties": {
        "@id": "way/144128127",
        "addr:housenumber": "58",
        "addr:postcode": "53800",
        "addr:street": "Центральна вулиця",
        "building": "yes",
        "name": "Міленіум",
        "name:uk": "Міленіум",
        "shop": "clothes",
        "@geometry": "center"
      },
      "geometry": {
        "type": "Point",
        "coordinates": [
          33.7128991,
          47.6595475
        ]
      },
      "id": "way/144128127"
    },
    {
      "type": "Feature",
      "properties": {
        "@id": "way/144210257",
        "addr:housenumber": "49",
        "addr:postcode": "53802",
        "addr:street": "Центральна вулиця",
        "building": "retail",
        "shop": "mall",
        "@geometry": "center"
      },
      "geometry": {
        "type": "Point",
        "coordinates": [
          33.7129477,
          47.6605141
        ]
      },
      "id": "way/144210257"
    },
    {
      "type": "Feature",
      "properties": {
        "@id": "way/144227829",
        "addr:housenumber": "23",
        "addr:postcode": "53800",
        "addr:street": "вулиця Ветеранів",
        "building": "yes",
        "name": "Люкс",
        "name:uk": "Люкс",
        "shop": "clothes",
        "@geometry": "center"
      },
      "geometry": {
        "type": "Point",
        "coordinates": [
          33.7152873,
          47.6602121
        ]
      },
      "id": "way/144227829"
    },
    {
      "type": "Feature",
      "properties": {
        "@id": "way/144230024",
        "addr:housenumber": "70",
        "addr:postcode": "53800",
        "addr:street": "Центральна вулиця",
        "building": "yes",
        "shop": "department_store",
        "wheelchair": "yes",
        "@geometry": "center"
      },
      "geometry": {
        "type": "Point",
        "coordinates": [
          33.7145387,
          47.6608781
        ]
      },
      "id": "way/144230024"
    },
    {
      "type": "Feature",
      "properties": {
        "@id": "way/144230464",
        "addr:housenumber": "78",
        "addr:postcode": "53800",
        "addr:street": "Центральна вулиця",
        "building": "yes",
        "name": "АТБ маркет",
        "name:uk": "АТБ маркет",
        "opening_hours": "24/7",
        "shop": "supermarket",
        "@geometry": "center"
      },
      "geometry": {
        "type": "Point",
        "coordinates": [
          33.7148799,
          47.6611267
        ]
      },
      "id": "way/144230464"
    },
    {
      "type": "Feature",
      "properties": {
        "@id": "way/144387716",
        "addr:housenumber": "59",
        "addr:postcode": "53800",
        "addr:street": "Центральна вулиця",
        "amenity": "pharmacy",
        "building": "yes",
        "name": "Аптека №90",
        "name:uk": "Аптека №90",
        "operator": "Апостоліська районна рада",
        "@geometry": "center"
      },
      "geometry": {
        "type": "Point",
        "coordinates": [
          33.7151144,
          47.6618387
        ]
      },
      "id": "way/144387716"
    },
    {
      "type": "Feature",
      "properties": {
        "@id": "way/148603691",
        "addr:housenumber": "66А",
        "addr:postcode": "50059",
        "addr:street": "вулиця Федора Караманиць",
        "building": "yes",
        "building:levels": "2",
        "name": "АТБ-Маркет",
        "name:uk": "АТБ-Маркет",
        "shop": "supermarket",
        "@geometry": "center"
      },
      "geometry": {
        "type": "Point",
        "coordinates": [
          33.4806742,
          48.0103235
        ]
      },
      "id": "way/148603691"
    },
    {
      "type": "Feature",
      "properties": {
        "@id": "way/148603909",
        "addr:housenumber": "39",
        "addr:postcode": "50059",
        "addr:street": "вулиця Федора Караманиць",
        "brand": "Thrash! Траш!",
        "brand:en": "Thrash!",
        "brand:uk": "Траш!",
        "brand:wikidata": "Q56364758",
        "brand:wikipedia": "uk:Thrash!",
        "building": "yes",
        "contact:email": "info@thrash.ua",
        "contact:facebook": "https://www.facebook.com/thrash.ua",
        "contact:instagram": "https://www.instagram.com/thrash_market.super",
        "contact:website": "https://thrash.ua",
        "height": "12",
        "name": "Thrash! Траш!",
        "name:en": "Thrash!",
        "name:uk": "Траш!",
        "opening_hours": "Mo-Su 7:00-22:00",
        "phone:UA": "0 800 300 890",
        "shop": "supermarket",
        "@geometry": "center"
      },
      "geometry": {
        "type": "Point",
        "coordinates": [
          33.4734103,
          48.0213867
        ]
      },
      "id": "way/148603909"
    },
    {
      "type": "Feature",
      "properties": {
        "@id": "way/148604587",
        "addr:housenumber": "50",
        "addr:postcode": "50059",
        "addr:street": "вулиця Федора Караманиць",
        "building": "yes",
        "building:levels": "2",
        "name": "Юкон",
        "name:uk": "Юкон",
        "shop": "mall",
        "@geometry": "center"
      },
      "geometry": {
        "type": "Point",
        "coordinates": [
          33.4766406,
          48.0137658
        ]
      },
      "id": "way/148604587"
    },
    {
      "type": "Feature",
      "properties": {
        "@id": "way/149861554",
        "addr:housenumber": "28а",
        "addr:postcode": "50076",
        "addr:street": "вулиця Павла Глазового",
        "building": "yes",
        "name": "АТБ №47",
        "name:uk": "АТБ №47",
        "opening_hours": "24/7",
        "shop": "supermarket",
        "@geometry": "center"
      },
      "geometry": {
        "type": "Point",
        "coordinates": [
          33.4224928,
          47.9355785
        ]
      },
      "id": "way/149861554"
    },
    {
      "type": "Feature",
      "properties": {
        "@id": "way/156927109",
        "addr:housenumber": "5",
        "addr:postcode": "53720",
        "addr:street": "вулиця Мацюци",
        "building": "yes",
        "name": "Веселка",
        "name:ru": "Радуга",
        "name:uk": "Веселка",
        "payment:cash": "yes",
        "payment:mastercard": "yes",
        "payment:visa": "yes",
        "shop": "convenience",
        "@geometry": "center"
      },
      "geometry": {
        "type": "Point",
        "coordinates": [
          33.1410621,
          47.7338493
        ]
      },
      "id": "way/156927109"
    },
    {
      "type": "Feature",
      "properties": {
        "@id": "way/157525535",
        "addr:housenumber": "48а",
        "addr:postcode": "50042",
        "addr:street": "вулиця Едуарда Фукса",
        "amenity": "cafe",
        "name": "Tarantino",
        "@geometry": "center"
      },
      "geometry": {
        "type": "Point",
        "coordinates": [
          33.4356923,
          47.9720416
        ]
      },
      "id": "way/157525535"
    },
    {
      "type": "Feature",
      "properties": {
        "@id": "way/158694060",
        "addr:housenumber": "55",
        "addr:postcode": "50082",
        "addr:street": "вулиця Сергія Колачевського",
        "building": "hospital",
        "building:levels": "5",
        "healthcare": "hospital",
        "@geometry": "center"
      },
      "geometry": {
        "type": "Point",
        "coordinates": [
          33.5149447,
          48.0712918
        ]
      },
      "id": "way/158694060"
    },
    {
      "type": "Feature",
      "properties": {
        "@id": "way/164229141",
        "addr:housenumber": "60",
        "addr:postcode": "50019",
        "addr:street": "Прорізна вулиця",
        "building": "yes",
        "name": "Зручний",
        "name:uk": "Зручний",
        "shop": "convenience",
        "@geometry": "center"
      },
      "geometry": {
        "type": "Point",
        "coordinates": [
          33.3134542,
          47.9077286
        ]
      },
      "id": "way/164229141"
    },
    {
      "type": "Feature",
      "properties": {
        "@id": "way/179242373",
        "addr:housenumber": "14а",
        "addr:postcode": "50079",
        "addr:street": "Ботанічна вулиця",
        "amenity": "cafe",
        "building": "yes",
        "name": "Водолій",
        "name:ru": "Водолей",
        "name:uk": "Водолій",
        "@geometry": "center"
      },
      "geometry": {
        "type": "Point",
        "coordinates": [
          33.583955,
          48.1449454
        ]
      },
      "id": "way/179242373"
    },
    {
      "type": "Feature",
      "properties": {
        "@id": "way/206530913",
        "addr:country": "UA",
        "addr:housenumber": "41А",
        "addr:place": "Сонячний мікрорайон",
        "addr:postcode": "50056",
        "addr:street": "Сонячний мікрорайон",
        "alt_name:uk": "Варус",
        "building": "retail",
        "building:levels": "1",
        "contact:phone": "+380 564 99 0171",
        "contact:website": "https://varus.ua",
        "name": "Varus",
        "name:uk": "Varus",
        "opening_hours": "Mo-Su 07:00-22:00",
        "operator": "ОМЕГА",
        "payment:cash": "yes",
        "payment:mastercard": "yes",
        "payment:visa": "yes",
        "phone:UA": "0 800 307 080",
        "shop": "supermarket",
        "website": "https://varus.ua/",
        "wheelchair": "yes",
        "@geometry": "center"
      },
      "geometry": {
        "type": "Point",
        "coordinates": [
          33.4479446,
          47.9558287
        ]
      },
      "id": "way/206530913"
    },
    {
      "type": "Feature",
      "properties": {
        "@id": "way/251049172",
        "addr:housenumber": "32Б",
        "addr:postcode": "50037",
        "addr:street": "вулиця Сергія Колачевського",
        "building": "yes",
        "name": "Будматеріали",
        "name:uk": "Будматеріали",
        "opening_hours": "Mo-Su 09:00-19:00",
        "shop": "doityourself",
        "@geometry": "center"
      },
      "geometry": {
        "type": "Point",
        "coordinates": [
          33.4855414,
          48.0509253
        ]
      },
      "id": "way/251049172"
    },
    {
      "type": "Feature",
      "properties": {
        "@id": "way/639325873",
        "addr:housenumber": "1а",
        "addr:postcode": "50089",
        "addr:street": "вулиця Маршака",
        "amenity": "hospital",
        "healthcare": "hospital",
        "@geometry": "center"
      },
      "geometry": {
        "type": "Point",
        "coordinates": [
          33.5847551,
          48.1438693
        ]
      },
      "id": "way/639325873"
    },
    {
      "type": "Feature",
      "properties": {
        "@id": "way/686373650",
        "addr:housenumber": "55",
        "addr:postcode": "50082",
        "addr:street": "вулиця Сергія Колачевського",
        "amenity": "hospital",
        "email": "8likarnya@gmail.com",
        "healthcare": "hospital",
        "name": "Міська лікарня №8",
        "name:ru": "Городская больница №8",
        "name:uk": "Міська лікарня №8",
        "phone": "+380 68 032 8834",
        "website": "https://krmisto.gov.ua/ua/hospitals/8.html",
        "@geometry": "center"
      },
      "geometry": {
        "type": "Point",
        "coordinates": [
          33.5148844,
          48.07091
        ]
      },
      "id": "way/686373650"
    },
    {
      "type": "Feature",
      "properties": {
        "@id": "way/903184802",
        "addr:housenumber": "25",
        "addr:postcode": "50071",
        "addr:street": "вулиця Володимира Великого",
        "amenity": "hospital",
        "healthcare": "hospital",
        "healthcare:speciality": "biology;gynaecology",
        "name": "Комунальне підприємство \"Криворізький шкірно-венерологічний диспансер\"",
        "name:uk": "Комунальне підприємство \"Криворізький шкірно-венерологічний диспансер\"",
        "@geometry": "center"
      },
      "geometry": {
        "type": "Point",
        "coordinates": [
          33.4142686,
          47.9415824
        ]
      },
      "id": "way/903184802"
    },
    {
      "type": "Feature",
      "properties": {
        "@id": "way/970713900",
        "addr:housenumber": "2",
        "addr:postcode": "50102",
        "addr:street": "вулиця Каткова",
        "amenity": "hospital",
        "healthcare": "hospital",
        "name": "Криворізька міська лікарня №17",
        "name:uk": "Криворізька міська лікарня №17",
        "operator": "Криворізька міська рада",
        "website": "https://krmisto.gov.ua/ua/hospitals/13.html",
        "@geometry": "center"
      },
      "geometry": {
        "type": "Point",
        "coordinates": [
          33.1507245,
          47.6881738
        ]
      },
      "id": "way/970713900"
    },
    {
      "type": "Feature",
      "properties": {
        "@id": "way/992569851",
        "addr:housenumber": "17",
        "addr:postcode": "53700",
        "addr:street": "вулиця Казбек",
        "amenity": "hospital",
        "healthcare": "hospital",
        "name": "Широківська центральна районна лікарня",
        "name:uk": "Широківська центральна районна лікарня",
        "@geometry": "center"
      },
      "geometry": {
        "type": "Point",
        "coordinates": [
          33.2803311,
          47.6889785
        ]
      },
      "id": "way/992569851"
    },
    {
      "type": "Feature",
      "properties": {
        "@id": "node/1465572707",
        "addr:housenumber": "1",
        "addr:postcode": "50084",
        "addr:street": "вулиця Курчатова",
        "name": "АТБ №280",
        "name:uk": "АТБ №280",
        "opening_hours": "Mo-Su 08:00-22:00",
        "operator": "АТБ",
        "shop": "supermarket"
      },
      "geometry": {
        "type": "Point",
        "coordinates": [
          33.4265433,
          47.9630788
        ]
      },
      "id": "node/1465572707"
    },
    {
      "type": "Feature",
      "properties": {
        "@id": "node/1628172465",
        "addr:housenumber": "40",
        "addr:postcode": "50042",
        "addr:street": "вулиця Едуарда Фукса",
        "currency:UAH": "yes",
        "name": "АТБ №113",
        "name:en": "ATB #113",
        "name:ru": "АТБ №113",
        "name:uk": "АТБ №113",
        "opening_hours": "24/7",
        "operator": "АТБ",
        "payment:cash": "yes",
        "payment:mastercard": "yes",
        "payment:visa": "yes",
        "shop": "supermarket"
      },
      "geometry": {
        "type": "Point",
        "coordinates": [
          33.4359328,
          47.9745483
        ]
      },
      "id": "node/1628172465"
    },
    {
      "type": "Feature",
      "properties": {
        "@id": "node/1641669296",
        "addr:housenumber": "4",
        "addr:postcode": "50076",
        "addr:street": "вулиця Павла Глазового",
        "name": "Продукти",
        "name:uk": "Продукти",
        "opening_hours": "Mo-Sa 08:00-22:00",
        "payment:cash": "yes",
        "payment:mastercard": "yes",
        "payment:visa": "yes",
        "shop": "convenience"
      },
      "geometry": {
        "type": "Point",
        "coordinates": [
          33.418752,
          47.9353857
        ]
      },
      "id": "node/1641669296"
    },
    {
      "type": "Feature",
      "properties": {
        "@id": "node/1780136221",
        "addr:housenumber": "2",
        "addr:postcode": "50031",
        "addr:street": "Січеславська вулиця",
        "amenity": "pharmacy",
        "healthcare": "pharmacy",
        "name": "Гален",
        "name:en": "Galen",
        "name:ru": "Гален",
        "name:uk": "Гален"
      },
      "geometry": {
        "type": "Point",
        "coordinates": [
          33.4387185,
          47.9856948
        ]
      },
      "id": "node/1780136221"
    },
    {
      "type": "Feature",
      "properties": {
        "@id": "node/2968825020",
        "addr:housenumber": "1",
        "addr:postcode": "50008",
        "addr:street": "майдан Олександра Химиченка",
        "brand": "Сільпо",
        "brand:en": "Silpo",
        "brand:uk": "Сільпо",
        "brand:wikidata": "Q4419434",
        "name": "Сільпо",
        "name:en": "Silpo",
        "name:uk": "Сільпо",
        "opening_hours": "8:30-22:00",
        "shop": "supermarket",
        "wheelchair": "yes"
      },
      "geometry": {
        "type": "Point",
        "coordinates": [
          33.4401701,
          47.9472025
        ]
      },
      "id": "node/2968825020"
    },
    {
      "type": "Feature",
      "properties": {
        "@id": "node/3217903138",
        "addr:housenumber": "5",
        "addr:postcode": "50004",
        "addr:street": "вулиця Мартіна Шимановського",
        "name": "Лідер",
        "name:uk": "Лідер",
        "shop": "supermarket"
      },
      "geometry": {
        "type": "Point",
        "coordinates": [
          33.337562,
          47.8953161
        ]
      },
      "id": "node/3217903138"
    },
    {
      "type": "Feature",
      "properties": {
        "@id": "node/3354906500",
        "addr:housenumber": "34а",
        "addr:postcode": "50102",
        "addr:street": "проспект Перемоги",
        "amenity": "restaurant",
        "internet_access": "wlan",
        "name": "Жар-Піца",
        "name:uk": "Жар-Піца",
        "payment:credit_cards": "yes",
        "payment:debit_cards": "yes",
        "smoking": "separated"
      },
      "geometry": {
        "type": "Point",
        "coordinates": [
          33.1575455,
          47.6834905
        ]
      },
      "id": "node/3354906500"
    },
    {
      "type": "Feature",
      "properties": {
        "@id": "node/3388107195",
        "addr:housenumber": "41",
        "addr:postcode": "50000",
        "addr:street": "Свято-Миколаївська вулиця",
        "name": "Салтовски ковбаси",
        "name:uk": "Салтовски ковбаси",
        "shop": "supermarket"
      },
      "geometry": {
        "type": "Point",
        "coordinates": [
          33.3395335,
          47.9018188
        ]
      },
      "id": "node/3388107195"
    },
    {
      "type": "Feature",
      "properties": {
        "@id": "node/3891545895",
        "addr:housenumber": "7",
        "addr:postcode": "50014",
        "addr:street": "Січеславська вулиця",
        "amenity": "bank",
        "atm": "yes",
        "brand": "ПриватБанк",
        "brand:en": "PrivatBank",
        "brand:wikidata": "Q1515015",
        "brand:wikipedia": "uk:ПриватБанк",
        "name": "ПриватБанк",
        "name:en": "PrivatBank",
        "name:uk": "ПриватБанк"
      },
      "geometry": {
        "type": "Point",
        "coordinates": [
          33.43776,
          47.9875439
        ]
      },
      "id": "node/3891545895"
    },
    {
      "type": "Feature",
      "properties": {
        "@id": "node/4294642495",
        "addr:housenumber": "54",
        "addr:postcode": "50069",
        "addr:street": "вулиця Упіта",
        "email": "vents_zao@ukr.net",
        "internet_access": "wlan",
        "name": "Вентскомплект",
        "name:en": "Ventskomplekt ventilation system",
        "name:ru": "Вентскомплект",
        "name:uk": "Вентскомплект",
        "opening_hours": "Mo-Fr 09:00-17:00",
        "operator": "ЧАО \"Вентиляційні системи\"",
        "operator:ru": "ЧАО \"Вентиляционные системы\"",
        "operator:uk": "ЧАО \"Вентиляційні системи\"",
        "phone": "+380 67 638 0108",
        "shop": "hardware",
        "website": "https://vents.ua/"
      },
      "geometry": {
        "type": "Point",
        "coordinates": [
          33.3951768,
          47.9364645
        ]
      },
      "id": "node/4294642495"
    },
    {
      "type": "Feature",
      "properties": {
        "@id": "node/4343123790",
        "addr:housenumber": "4а",
        "addr:postcode": "53860",
        "addr:street": "вулиця Рибалка",
        "name": "Злагода",
        "name:uk": "Злагода",
        "opening_hours": "Mo-Su 08:00-14:00, 15:00-22:00",
        "shop": "convenience"
      },
      "geometry": {
        "type": "Point",
        "coordinates": [
          33.653195,
          47.5690158
        ]
      },
      "id": "node/4343123790"
    },
    {
      "type": "Feature",
      "properties": {
        "@id": "node/4404710193",
        "addr:housenumber": "58-А",
        "addr:postcode": "50046",
        "addr:street": "вулиця Всебратське-2",
        "entrance": "yes",
        "name": "Varus",
        "name:en": "Varus",
        "name:ru": "Варус",
        "name:uk": "Варус",
        "opening_hours": "Mo-Su 07:00-22:00",
        "shop": "supermarket",
        "website": "https://varus.ua/"
      },
      "geometry": {
        "type": "Point",
        "coordinates": [
          33.2549447,
          47.8796065
        ]
      },
      "id": "node/4404710193"
    },
    {
      "type": "Feature",
      "properties": {
        "@id": "node/4425478093",
        "addr:housenumber": "17а",
        "addr:postcode": "50021",
        "addr:street": "Спасівська вулиця",
        "email": "snab-kr@mail.ru",
        "internet_access": "wlan",
        "name": "ЕлектроСНАБ",
        "name:uk": "ЕлектроСНАБ",
        "opening_hours": "Mo-Sa 09:00-18:00",
        "phone": "+380 564 93 2028",
        "shop": "supermarket",
        "website": "http://elektrosnab.com.ua"
      },
      "geometry": {
        "type": "Point",
        "coordinates": [
          33.4271538,
          47.9608413
        ]
      },
      "id": "node/4425478093"
    },
    {
      "type": "Feature",
      "properties": {
        "@id": "node/4857759185",
        "addr:housenumber": "1Б",
        "addr:postcode": "50000",
        "addr:street": "Чарівна вулиця",
        "amenity": "cafe",
        "name": "Coffee Break",
        "name:uk": "Coffee Break",
        "opening_hours": "Mo-Su 08:00-20:00",
        "outdoor_seating": "no",
        "smoking": "no"
      },
      "geometry": {
        "type": "Point",
        "coordinates": [
          33.5150632,
          48.0746354
        ]
      },
      "id": "node/4857759185"
    },
    {
      "type": "Feature",
      "properties": {
        "@id": "node/4918966953",
        "addr:housenumber": "40а",
        "addr:postcode": "50000",
        "addr:street": "вулиця Глінки",
        "description": "Компанія Білий вітер займається розробкою веб-сайтів, автоматизацією бізнес-процесів та обліку підприємсв.",
        "email": "office@wwind.ua",
        "name": "Білий вітер. Компанія ІТ",
        "name:uk": "Білий вітер. Компанія ІТ",
        "office": "it",
        "opening_hours": "Mo-Fr 08:00-17:00",
        "phone": "+380 564 09 9403",
        "website": "https://wwind.ua/",
        "wikidata": "Q12086605",
        "wikipedia": "uk:Білий Вітер"
      },
      "geometry": {
        "type": "Point",
        "coordinates": [
          33.3492829,
          47.9000117
        ]
      },
      "id": "node/4918966953"
    },
    {
      "type": "Feature",
      "properties": {
        "@id": "node/5355418495",
        "addr:housenumber": "16",
        "addr:postcode": "50071",
        "addr:street": "Бульварний провулок",
        "name": "Нектар",
        "name:uk": "Нектар",
        "shop": "convenience"
      },
      "geometry": {
        "type": "Point",
        "coordinates": [
          33.419779,
          47.9376039
        ]
      },
      "id": "node/5355418495"
    },
    {
      "type": "Feature",
      "properties": {
        "@id": "node/5708031376",
        "addr:housenumber": "1",
        "addr:postcode": "50000",
        "addr:street": "Комерційна вулиця",
        "amenity": "restaurant",
        "cuisine": "asian",
        "delivery": "yes",
        "name": "Sushi wok out",
        "name:en": "Sushi wok out",
        "name:ru": "Суши вок аут",
        "name:uk": "Суши вок аут",
        "outdoor_seating": "no",
        "short_name": "SWO",
        "takeaway": "yes",
        "website": "https://swo.com.ua/"
      },
      "geometry": {
        "type": "Point",
        "coordinates": [
          33.3426848,
          47.901597
        ]
      },
      "id": "node/5708031376"
    },
    {
      "type": "Feature",
      "properties": {
        "@id": "node/6140978567",
        "addr:housenumber": "70",
        "addr:postcode": "53802",
        "addr:street": "Центральна вулиця",
        "amenity": "pharmacy",
        "dispensing": "yes",
        "healthcare": "pharmacy",
        "name": "Руан",
        "name:uk": "Руан"
      },
      "geometry": {
        "type": "Point",
        "coordinates": [
          33.7143768,
          47.6609065
        ]
      },
      "id": "node/6140978567"
    },
    {
      "type": "Feature",
      "properties": {
        "@id": "node/7690557820",
        "addr:housenumber": "7Д",
        "addr:postcode": "50084",
        "addr:street": "проспект 200-річчя Кривого Рогу",
        "name": "АТБ №356",
        "name:en": "АТБ #356",
        "name:ru": "АТБ №356",
        "name:uk": "АТБ №356",
        "opening_hours": "24/7",
        "operator": "АТБ",
        "payment:cash": "yes",
        "payment:mastercard": "yes",
        "payment:visa": "yes",
        "shop": "supermarket"
      },
      "geometry": {
        "type": "Point",
        "coordinates": [
          33.4366,
          47.9644842
        ]
      },
      "id": "node/7690557820"
    },
    {
      "type": "Feature",
      "properties": {
        "@id": "node/7722333205",
        "addr:housenumber": "1А",
        "addr:postcode": "50031",
        "addr:street": "вулиця Едуарда Фукса",
        "name": "АТБ №443",
        "name:uk": "АТБ №443",
        "opening_hours": "24/7",
        "operator": "АТБ",
        "shop": "supermarket"
      },
      "geometry": {
        "type": "Point",
        "coordinates": [
          33.4389304,
          47.9853183
        ]
      },
      "id": "node/7722333205"
    },
    {
      "type": "Feature",
      "properties": {
        "@id": "node/7963886264",
        "addr:housenumber": "27",
        "addr:postcode": "53100",
        "addr:street": "Больнична вулиця",
        "name": "Водолей",
        "name:uk": "Водолей",
        "shop": "supermarket"
      },
      "geometry": {
        "type": "Point",
        "coordinates": [
          33.8776683,
          48.0441838
        ]
      },
      "id": "node/7963886264"
    },
    {
      "type": "Feature",
      "properties": {
        "@id": "node/8679126674",
        "addr:housenumber": "3",
        "addr:postcode": "50071",
        "addr:street": "вулиця Володимира Великого",
        "name": "Компанія НАВІ",
        "name:uk": "Компанія НАВІ",
        "office": "company",
        "opening_hours": "Mo-Fr 09:00-18:00",
        "phone": "+380 67 522 6222",
        "website": "https://www.navi.biz.ua"
      },
      "geometry": {
        "type": "Point",
        "coordinates": [
          33.4012824,
          47.9360513
        ]
      },
      "id": "node/8679126674"
    },
    {
      "type": "Feature",
      "properties": {
        "@id": "node/8826586017",
        "addr:housenumber": "1",
        "addr:postcode": "50038",
        "addr:street": "вулиця Водопʼянова",
        "name": "Пиво-Рыба",
        "name:uk": "Таврія",
        "opening_hours": "Mo-Su 08:00-22:00",
        "shop": "convenience"
      },
      "geometry": {
        "type": "Point",
        "coordinates": [
          33.4408185,
          47.9398689
        ]
      },
      "id": "node/8826586017"
    },
    {
      "type": "Feature",
      "properties": {
        "@id": "node/9170451794",
        "addr:housenumber": "21а",
        "addr:postcode": "50071",
        "addr:street": "вулиця Володимира Великого",
        "amenity": "clinic",
        "healthcare": "clinic",
        "healthcare:speciality": "dentist",
        "name": "Криворізька міська стоматологічна поліклініка №5",
        "name:uk": "Криворізька міська стоматологічна поліклініка №5",
        "website": "https://krmisto.gov.ua/ua/hospitals/30.html"
      },
      "geometry": {
        "type": "Point",
        "coordinates": [
          33.411712,
          47.9404648
        ]
      },
      "id": "node/9170451794"
    },
    {
      "type": "Feature",
      "properties": {
        "@id": "node/9170451795",
        "addr:housenumber": "21",
        "addr:postcode": "50071",
        "addr:street": "вулиця Володимира Великого",
        "amenity": "clinic",
        "healthcare": "clinic",
        "name": "Центр первинної медико-санітарної допомоги №4",
        "name:uk": "Центр первинної медико-санітарної допомоги №4",
        "website": "https://krmisto.gov.ua/ua/hospitals/54.html"
      },
      "geometry": {
        "type": "Point",
        "coordinates": [
          33.4109733,
          47.9424509
        ]
      },
      "id": "node/9170451795"
    },
    {
      "type": "Feature",
      "properties": {
        "@id": "node/9170451796",
        "addr:housenumber": "21",
        "addr:postcode": "50071",
        "addr:street": "вулиця Володимира Великого",
        "amenity": "clinic",
        "healthcare": "clinic",
        "name": "Амбулаторія №1 ЗПСМ",
        "name:uk": "Амбулаторія №1 ЗПСМ",
        "website": "https://krmisto.gov.ua/ua/hospitals/ambulatory/id/9.html"
      },
      "geometry": {
        "type": "Point",
        "coordinates": [
          33.4107024,
          47.942357
        ]
      },
      "id": "node/9170451796"
    },
    {
      "type": "Feature",
      "properties": {
        "@id": "node/9170451797",
        "addr:housenumber": "8а",
        "addr:postcode": "50007",
        "addr:street": "Святогеоргіївська вулиця",
        "amenity": "clinic",
        "healthcare": "clinic",
        "name": "Амбулаторія №1 ЗПСМ",
        "name:uk": "Амбулаторія №1 ЗПСМ",
        "operator": "ЦПМСД №5",
        "website": "https://krmisto.gov.ua/ua/hospitals/ambulatory/id/14.html"
      },
      "geometry": {
        "type": "Point",
        "coordinates": [
          33.383169,
          47.9041631
        ]
      },
      "id": "node/9170451797"
    },
    {
      "type": "Feature",
      "properties": {
        "@id": "node/9170451798",
        "addr:housenumber": "55",
        "addr:postcode": "50082",
        "addr:street": "вулиця Сергія Колачевського",
        "amenity": "clinic",
        "healthcare": "clinic",
        "name": "Амбулаторія №2 ЗПСМ ЦПМСД №2",
        "name:uk": "Амбулаторія №2 ЗПСМ ЦПМСД №2",
        "operator": "ЦПМСД №2"
      },
      "geometry": {
        "type": "Point",
        "coordinates": [
          33.5143428,
          48.0710453
        ]
      },
      "id": "node/9170451798"
    },
    {
      "type": "Feature",
      "properties": {
        "@id": "node/9170482740",
        "addr:housenumber": "2",
        "addr:postcode": "50102",
        "addr:street": "вулиця Каткова",
        "amenity": "clinic",
        "healthcare": "clinic",
        "name": "Центр первинної медико-санітарної допомоги №7",
        "name:uk": "Центр первинної медико-санітарної допомоги №7",
        "website": "https://krmisto.gov.ua/ua/hospitals/57.html"
      },
      "geometry": {
        "type": "Point",
        "coordinates": [
          33.1480375,
          47.68707
        ]
      },
      "id": "node/9170482740"
    },
    {
      "type": "Feature",
      "properties": {
        "@id": "node/9170482741",
        "addr:housenumber": "2",
        "addr:postcode": "50102",
        "addr:street": "вулиця Каткова",
        "amenity": "clinic",
        "healthcare": "clinic",
        "name": "Центр вакцинації",
        "name:uk": "Центр вакцинації"
      },
      "geometry": {
        "type": "Point",
        "coordinates": [
          33.1477651,
          47.6870159
        ]
      },
      "id": "node/9170482741"
    },
    {
      "type": "Feature",
      "properties": {
        "@id": "node/9170593557",
        "addr:housenumber": "2",
        "addr:postcode": "50102",
        "addr:street": "вулиця Каткова",
        "amenity": "clinic",
        "healthcare": "clinic",
        "name": "Криворізька міська лікарня №17",
        "name:uk": "Криворізька міська лікарня №17",
        "phone": "+380 67 914 5025",
        "website": "https://krmisto.gov.ua/ua/hospitals/13.html"
      },
      "geometry": {
        "type": "Point",
        "coordinates": [
          33.1512928,
          47.6879495
        ]
      },
      "id": "node/9170593557"
    },
    {
      "type": "Feature",
      "properties": {
        "@id": "node/9170593558",
        "addr:housenumber": "2",
        "addr:postcode": "50102",
        "addr:street": "вулиця Каткова",
        "amenity": "clinic",
        "healthcare": "clinic",
        "name": "Амбулаторія №1 ЗПСМ",
        "name:uk": "Амбулаторія №1 ЗПСМ",
        "website": "https://krmisto.gov.ua/ua/hospitals/ambulatory/id/24.html"
      },
      "geometry": {
        "type": "Point",
        "coordinates": [
          33.1484691,
          47.687142
        ]
      },
      "id": "node/9170593558"
    },
    {
      "type": "Feature",
      "properties": {
        "@id": "node/9170593559",
        "addr:housenumber": "6б",
        "addr:postcode": "50031",
        "addr:street": "Женевська вулиця",
        "amenity": "clinic",
        "healthcare": "clinic",
        "name": "Амбулаторія №1 ЗПСМ",
        "name:uk": "Амбулаторія №1 ЗПСМ",
        "operator": "КНП \"ЦПМСД №3\" КМР",
        "website": "https://krmisto.gov.ua/ua/hospitals/ambulatory/id/1.html"
      },
      "geometry": {
        "type": "Point",
        "coordinates": [
          33.4412395,
          47.9826054
        ]
      },
      "id": "node/9170593559"
    },
    {
      "type": "Feature",
      "properties": {
        "@id": "node/9170593561",
        "addr:housenumber": "1а",
        "addr:postcode": "50089",
        "addr:street": "вулиця Маршака",
        "amenity": "clinic",
        "healthcare": "clinic",
        "name": "Центр первинної медико-санітарної допомоги №1",
        "name:uk": "Центр первинної медико-санітарної допомоги №1",
        "website": "https://krmisto.gov.ua/ua/hospitals/51.html"
      },
      "geometry": {
        "type": "Point",
        "coordinates": [
          33.5832327,
          48.1434287
        ]
      },
      "id": "node/9170593561"
    },
    {
      "type": "Feature",
      "properties": {
        "@id": "node/9170593562",
        "addr:housenumber": "1а",
        "addr:postcode": "50089",
        "addr:street": "вулиця Маршака",
        "amenity": "clinic",
        "healthcare": "clinic",
        "name": "Амбулаторія №1 КНП \"ЦПМСД №1\"",
        "name:uk": "Амбулаторія №1 КНП \"ЦПМСД №1\"",
        "website": "https://krmisto.gov.ua/ua/hospitals/ambulatory/id/19.html"
      },
      "geometry": {
        "type": "Point",
        "coordinates": [
          33.5835431,
          48.1434231
        ]
      },
      "id": "node/9170593562"
    },
    {
      "type": "Feature",
      "properties": {
        "@id": "node/9245786748",
        "addr:housenumber": "101а",
        "addr:postcode": "53020",
        "addr:street": "вулиця Миру",
        "amenity": "pharmacy",
        "dispensing": "yes",
        "healthcare": "pharmacy",
        "name": "Аптечний пункт \"Гален\" №4",
        "name:uk": "Аптечний пункт \"Гален\" №4"
      },
      "geometry": {
        "type": "Point",
        "coordinates": [
          33.2889977,
          48.0532303
        ]
      },
      "id": "node/9245786748"
    },
    {
      "type": "Feature",
      "properties": {
        "@id": "node/10680849618",
        "addr:housenumber": "3",
        "addr:postcode": "50027",
        "addr:street": "Університетський проспект",
        "amenity": "bank",
        "brand": "Unex Bank",
        "brand:en": "Unex Bank",
        "brand:uk": "Юнекс Банк",
        "brand:wikidata": "Q97305672",
        "name": "Unex Bank",
        "name:en": "Unex Bank",
        "name:uk": "Юнекс Банк",
        "opening_hours": "Mo-Fr 09:00-18:00"
      },
      "geometry": {
        "type": "Point",
        "coordinates": [
          33.3930735,
          47.9105526
        ]
      },
      "id": "node/10680849618"
    },
    {
      "type": "Feature",
      "properties": {
        "@id": "node/11030818158",
        "addr:housenumber": "35",
        "addr:postcode": "50102",
        "addr:street": "проспект Перемоги",
        "amenity": "pharmacy",
        "healthcare": "pharmacy",
        "name": "Подорожник",
        "name:uk": "Подорожник",
        "opening_hours": "Mo-Su 08:00-20:00",
        "website": "https://podorozhnyk.com"
      },
      "geometry": {
        "type": "Point",
        "coordinates": [
          33.1591618,
          47.6823329
        ]
      },
      "id": "node/11030818158"
    },
    {
      "type": "Feature",
      "properties": {
        "@id": "node/11330763947",
        "addr:housenumber": "5",
        "addr:postcode": "50000",
        "addr:street": "вулиця Мартіна Шимановського",
        "amenity": "cafe",
        "contact:instagram": "gdancivska_kavyarnya",
        "cuisine": "coffee_shop",
        "internet_access": "wlan",
        "name": "Гданцівська Кавʼярня",
        "name:uk": "Гданцівська Кавʼярня",
        "opening_hours": "Mo-Su 08:00-21:00",
        "outdoor_seating": "yes",
        "phone": "+380671790029",
        "website": "https://instagram.com/gdancivska_kavyarnya"
      },
      "geometry": {
        "type": "Point",
        "coordinates": [
          33.3375443,
          47.895589
        ]
      },
      "id": "node/11330763947"
    },
    {
      "type": "Feature",
      "properties": {
        "@id": "node/11330767624",
        "addr:housenumber": "7",
        "addr:postcode": "50000",
        "addr:street": "вулиця Мартіна Шимановського",
        "amenity": "pharmacy",
        "healthcare": "pharmacy"
      },
      "geometry": {
        "type": "Point",
        "coordinates": [
          33.3376521,
          47.8950207
        ]
      },
      "id": "node/11330767624"
    },
    {
      "type": "Feature",
      "properties": {
        "@id": "node/11924915140",
        "addr:housenumber": "44/13",
        "addr:postcode": "50000",
        "addr:street": "Свято-Миколаївська вулиця",
        "brand": "АТБ-Маркет",
        "brand:en": "ATB-Market",
        "brand:uk": "АТБ-Маркет",
        "brand:wikidata": "Q4054103",
        "brand:wikipedia": "uk:АТБ-Маркет",
        "building": "yes",
        "building:levels": "1",
        "name": "АТБ-Маркет",
        "name:en": "ATB-Market",
        "name:ru": "АТБ-Маркет",
        "name:uk": "АТБ-Маркет",
        "opening_hours": "24/7",
        "operator": "АТБ",
        "shop": "supermarket",
        "shop_number": "№679",
        "website": "https://www.atbmarket.com/uk"
      },
      "geometry": {
        "type": "Point",
        "coordinates": [
          33.338388,
          47.9017481
        ]
      },
      "id": "node/11924915140"
    },
    {
      "type": "Feature",
      "properties": {
        "@id": "node/11955942491",
        "addr:city": "Kryvyi Rih",
        "addr:housenumber": "54",
        "addr:postcode": "50086",
        "addr:street": "Haharina Ave",
        "addr:unit": "в",
        "amenity": "atm",
        "cash_in": "yes",
        "cash_out": "yes",
        "cash_withdrawal": "yes",
        "check_date": "2024-06-04",
        "contact:email": "support@shitcoins.club",
        "contact:facebook": "https://www.facebook.com/shitcoins.club",
        "contact:instagram": "https://www.instagram.com/shitcoinsclub",
        "contact:telegram": "https://t.me/shitcoinsclub",
        "contact:twitter": "https://twitter.com/BitomatCom",
        "currency:DASH": "yes",
        "currency:ETH": "yes",
        "currency:LTC": "yes",
        "currency:UAH": "yes",
        "currency:USDC": "yes",
        "currency:USDT": "yes",
        "currency:XBT": "yes",
        "indoor": "yes",
        "name": "Bitcoin ATM - Shitcoins.club",
        "opening_hours": "Mo-Su 09:00-19:00",
        "operator": "Shitcoins.club",
        "payment:cash": "yes",
        "payment:lightning": "no",
        "payment:lightning_contactless": "no",
        "payment:onchain": "yes",
        "phone": "+380 97 433 4473",
        "website": "https://shitcoins.club/"
      },
      "geometry": {
        "type": "Point",
        "coordinates": [
          33.4094803,
          47.9082494
        ]
      },
      "id": "node/11955942491"
    },
    {
      "type": "Feature",
      "properties": {
        "@id": "node/12652801801",
        "addr:housenumber": "5А",
        "addr:postcode": "50050",
        "addr:street": "Вечірньокутська вулиця",
        "contact:facebook": "avrora.multimarket",
        "contact:instagram": "avrora.multimarket",
        "name": "Аврора",
        "opening_hours": "Mo-Su 08:00-21:00",
        "phone": "+380800300066",
        "shop": "department_store",
        "website": "https://avrora.ua/"
      },
      "geometry": {
        "type": "Point",
        "coordinates": [
          33.4481362,
          47.9236286
        ]
      },
      "id": "node/12652801801"
    }
  ]
}