{
  "type": "FeatureCollection",
  "features": [
    {
      "type": "Feature",
      "properties": {
        "postcode": "49915",
        "settlementName": "м. Кривий Ріг"
      },
      "geometry": null
    },
    {
      "type": "Feature",
      "properties": {
        "postcode": "50000",
        "settlementName": "м. Кривий Ріг"
      },
      "geometry": null
    },
    {
      "type": "Feature",
      "properties": {
        "postcode": "50001",
        "settlementName": "м. Кривий Ріг"
      },
      "geometry": null
    },
    {
      "type": "Feature",
      "properties": {
        "postcode": "50002",
        "settlementName": "м. Кривий Ріг"
      },
      "geometry": null
    },
    {
      "type": "Feature",
      "properties": {
        "postcode": "50003",
        "settlementName": "м. Кривий Ріг"
      },
      "geometry": null
    },
    {
      "type": "Feature",
      "properties": {
        "postcode": "50004",
        "settlementName": "м. Кривий Ріг"
      },
      "geometry": null
    },
    {
      "type": "Feature",
      "properties": {
        "postcode": "50005",
        "settlementName": "м. Кривий Ріг"
      },
      "geometry": null
    },
    {
      "type": "Feature",
      "properties": {
        "postcode": "50006",
        "settlementName": "м. Кривий Ріг"
      },
      "geometry": null
    },
    {
      "type": "Feature",
      "properties": {
        "postcode": "50007",
        "settlementName": "м. Кривий Ріг"
      },
      "geometry": null
    },
    {
      "type": "Feature",
      "properties": {
        "postcode": "50008",
        "settlementName": "м. Кривий Ріг"
      },
      "geometry": null
    },
    {
      "type": "Feature",
      "properties": {
        "postcode": "50009",
        "settlementName": "м. Кривий Ріг"
      },
      "geometry": null
    },
    {
      "type": "Feature",
      "properties": {
        "postcode": "50010",
        "settlementName": "м. Кривий Ріг"
      },
      "geometry": null
    },
    {
      "type": "Feature",
      "properties": {
        "postcode": "50011",
        "settlementName": "м. Кривий Ріг"
      },
      "geometry": null
    },
    {
      "type": "Feature",
      "properties": {
        "postcode": "50012",
        "settlementName": "м. Кривий Ріг"
      },
      "geometry": null
    },
    {
      "type": "Feature",
      "properties": {
        "postcode": "50013",
        "settlementName": "м. Кривий Ріг"
      },
      "geometry": null
    },
    {
      "type": "Feature",
      "properties": {
        "postcode": "50014",
        "settlementName": "м. Кривий Ріг"
      },
      "geometry": null
    },
    {
      "type": "Feature",
      "properties": {
        "postcode": "50015",
        "settlementName": "м. Кривий Ріг"
      },
      "geometry": null
    },
    {
      "type": "Feature",
      "properties": {
        "postcode": "50016",
        "settlementName": "м. Кривий Ріг"
      },
      "geometry": null
    },
    {
      "type": "Feature",
      "properties": {
        "postcode": "50017",
        "settlementName": "м. Кривий Ріг"
      },
      "geometry": null
    },
    {
      "type": "Feature",
      "properties": {
        "postcode": "50018",
        "settlementName": "м. Кривий Ріг"
      },
      "geometry": null
    },
    {
      "type": "Feature",
      "properties": {
        "postcode": "50019",
        "settlementName": "м. Кривий Ріг"
      },
      "geometry": null
    },
    {
      "type": "Feature",
      "properties": {
        "postcode": "50020",
        "settlementName": "м. Кривий Ріг"
      },
      "geometry": null
    },
    {
      "type": "Feature",
      "properties": {
        "postcode": "50021",
        "settlementName": "м. Кривий Ріг"
      },
      "geometry": null
    },
    {
      "type": "Feature",
      "properties": {
        "postcode": "50022",
        "settlementName": "м. Кривий Ріг"
      },
      "geometry": null
    },
    {
      "type": "Feature",
      "properties": {
        "postcode": "50023",
        "settlementName": "м. Кривий Ріг"
      },
      "geometry": null
    },
    {
      "type": "Feature",
      "properties": {
        "postcode": "50024",
        "settlementName": "м. Кривий Ріг"
      },
      "geometry": null
    },
    {
      "type": "Feature",
      "properties": {
        "postcode": "50025",
        "settlementName": "м. Кривий Ріг"
      },
      "geometry": null
    },
    {
      "type": "Feature",
      "properties": {
        "postcode": "50026",
        "settlementName": "м. Кривий Ріг"
      },
      "geometry": null
    },
    {
      "type": "Feature",
      "properties": {
        "postcode": "50027",
        "settlementName": "м. Кривий Ріг"
      },
      "geometry": null
    },
    {
      "type": "Feature",
      "properties": {
        "postcode": "50028",
        "settlementName": "м. Кривий Ріг"
      },
      "geometry": null
    },
    {
      "type": "Feature",
      "properties": {
        "postcode": "50029",
        "settlementName": "м. Кривий Ріг"
      },
      "geometry": null
    },
    {
      "type": "Feature",
      "properties": {
        "postcode": "50030",
        "settlementName": "м. Кривий Ріг"
      },
      "geometry": null
    },
    {
      "type": "Feature",
      "properties": {
        "postcode": "50031",
        "settlementName": "м. Кривий Ріг"
      },
      "geometry": null
    },
    {
      "type": "Feature",
      "properties": {
        "postcode": "50032",
        "settlementName": "м. Кривий Ріг"
      },
      "geometry": null
    },
    {
      "type": "Feature",
      "properties": {
        "postcode": "50033",
        "settlementName": "м. Кривий Ріг"
      },
      "geometry": null
    },
    {
      "type": "Feature",
      "properties": {
        "postcode": "50034",
        "settlementName": "м. Кривий Ріг"
      },
      "geometry": null
    },
    {
      "type": "Feature",
      "properties": {
        "postcode": "50035",
        "settlementName": "м. Кривий Ріг"
      },
      "geometry": null
    },
    {
      "type": "Feature",
      "properties": {
        "postcode": "50036",
        "settlementName": "м. Кривий Ріг"
      },
      "geometry": null
    },
    {
      "type": "Feature",
      "properties": {
        "postcode": "50037",
        "settlementName": "м. Кривий Ріг"
      },
      "geometry": null
    },
    {
      "type": "Feature",
      "properties": {
        "postcode": "50038",
        "settlementName": "м. Кривий Ріг"
      },
      "geometry": null
    },
    {
      "type": "Feature",
      "properties": {
        "postcode": "50039",
        "settlementName": "м. Кривий Ріг"
      },
      "geometry": null
    },
    {
      "type": "Feature",
      "properties": {
        "postcode": "50040",
        "settlementName": "м. Кривий Ріг"
      },
      "geometry": null
    },
    {
      "type": "Feature",
      "properties": {
        "postcode": "50041",
        "settlementName": "м. Кривий Ріг"
      },
      "geometry": null
    },
    {
      "type": "Feature",
      "properties": {
        "postcode": "50042",
        "settlementName": "м. Кривий Ріг"
      },
      "geometry": null
    },
    {
      "type": "Feature",
      "properties": {
        "postcode": "50043",
        "settlementName": "м. Кривий Ріг"
      },
      "geometry": null
    },
    {
      "type": "Feature",
      "properties": {
        "postcode": "50044",
        "settlementName": "м. Кривий Ріг"
      },
      "geometry": null
    },
    {
      "type": "Feature",
      "properties": {
        "postcode": "50045",
        "settlementName": "м. Кривий Ріг"
      },
      "geometry": null
    },
    {
      "type": "Feature",
      "properties": {
        "postcode": "50046",
        "settlementName": "м. Кривий Ріг"
      },
      "geometry": null
    },
    {
      "type": "Feature",
      "properties": {
        "postcode": "50047",
        "settlementName": "м. Кривий Ріг"
      },
      "geometry": null
    },
    {
      "type": "Feature",
      "properties": {
        "postcode": "50048",
        "settlementName": "м. Кривий Ріг"
      },
      "geometry": null
    },
    {
      "type": "Feature",
      "properties": {
        "postcode": "50049",
        "settlementName": "м. Кривий Ріг"
      },
      "geometry": null
    },
    {
      "type": "Feature",
      "properties": {
        "postcode": "50050",
        "settlementName": "м. Кривий Ріг"
      },
      "geometry": null
    },
    {
      "type": "Feature",
      "properties": {
        "postcode": "50051",
        "settlementName": "м. Кривий Ріг"
      },
      "geometry": null
    },
    {
      "type": "Feature",
      "properties": {
        "postcode": "50052",
        "settlementName": "м. Кривий Ріг"
      },
      "geometry": null
    },
    {
      "type": "Feature",
      "properties": {
        "postcode": "50053",
        "settlementName": "м. Кривий Ріг"
      },
      "geometry": null
    },
    {
      "type": "Feature",
      "properties": {
        "postcode": "50054",
        "settlementName": "м. Кривий Ріг"
      },
      "geometry": null
    },
    {
      "type": "Feature",
      "properties": {
        "postcode": "50055",
        "settlementName": "м. Кривий Ріг"
      },
      "geometry": null
    },
    {
      "type": "Feature",
      "properties": {
        "postcode": "50056",
        "settlementName": "м. Кривий Ріг"
      },
      "geometry": null
    },
    {
      "type": "Feature",
      "properties": {
        "postcode": "50057",
        "settlementName": "м. Кривий Ріг"
      },
      "geometry": null
    },
    {
      "type": "Feature",
      "properties": {
        "postcode": "50058",
        "settlementName": "м. Кривий Ріг"
      },
      "geometry": null
    },
    {
      "type": "Feature",
      "properties": {
        "postcode": "50059",
        "settlementName": "м. Кривий Ріг"
      },
      "geometry": null
    },
    {
      "type": "Feature",
      "properties": {
        "postcode": "50060",
        "settlementName": "м. Кривий Ріг"
      },
      "geometry": null
    },
    {
      "type": "Feature",
      "properties": {
        "postcode": "50061",
        "settlementName": "м. Кривий Ріг"
      },
      "geometry": null
    },
    {
      "type": "Feature",
      "properties": {
        "postcode": "50062",
        "settlementName": "м. Кривий Ріг"
      },
      "geometry": null
    },
    {
      "type": "Feature",
      "properties": {
        "postcode": "50063",
        "settlementName": "м. Кривий Ріг"
      },
      "geometry": null
    },
    {
      "type": "Feature",
      "properties": {
        "postcode": "50064",
        "settlementName": "м. Кривий Ріг"
      },
      "geometry": null
    },
    {
      "type": "Feature",
      "properties": {
        "postcode": "50065",
        "settlementName": "м. Кривий Ріг"
      },
      "geometry": null
    },
    {
      "type": "Feature",
      "properties": {
        "postcode": "50066",
        "settlementName": "м. Кривий Ріг"
      },
      "geometry": null
    },
    {
      "type": "Feature",
      "properties": {
        "postcode": "50067",
        "settlementName": "м. Кривий Ріг"
      },
      "geometry": null
    },
    {
      "type": "Feature",
      "properties": {
        "postcode": "50068",
        "settlementName": "м. Кривий Ріг"
      },
      "geometry": null
    },
    {
      "type": "Feature",
      "properties": {
        "postcode": "50069",
        "settlementName": "м. Кривий Ріг"
      },
      "geometry": null
    },
    {
      "type": "Feature",
      "properties": {
        "postcode": "50070",
        "settlementName": "м. Кривий Ріг"
      },
      "geometry": null
    },
    {
      "type": "Feature",
      "properties": {
        "postcode": "50071",
        "settlementName": "м. Кривий Ріг"
      },
      "geometry": null
    },
    {
      "type": "Feature",
      "properties": {
        "postcode": "50072",
        "settlementName": "м. Кривий Ріг"
      },
      "geometry": null
    },
    {
      "type": "Feature",
      "properties": {
        "postcode": "50073",
        "settlementName": "м. Кривий Ріг"
      },
      "geometry": null
    },
    {
      "type": "Feature",
      "properties": {
        "postcode": "50074",
        "settlementName": "м. Кривий Ріг"
      },
      "geometry": null
    },
    {
      "type": "Feature",
      "properties": {
        "postcode": "50075",
        "settlementName": "м. Кривий Ріг"
      },
      "geometry": null
    },
    {
      "type": "Feature",
      "properties": {
        "postcode": "50076",
        "settlementName": "м. Кривий Ріг"
      },
      "geometry": null
    },
    {
      "type": "Feature",
      "properties": {
        "postcode": "50077",
        "settlementName": "м. Кривий Ріг"
      },
      "geometry": null
    },
    {
      "type": "Feature",
      "properties": {
        "postcode": "50078",
        "settlementName": "м. Кривий Ріг"
      },
      "geometry": null
    },
    {
      "type": "Feature",
      "properties": {
        "postcode": "50079",
        "settlementName": "м. Кривий Ріг"
      },
      "geometry": null
    },
    {
      "type": "Feature",
      "properties": {
        "postcode": "50080",
        "settlementName": "м. Кривий Ріг"
      },
      "geometry": null
    },
    {
      "type": "Feature",
      "properties": {
        "postcode": "50081",
        "settlementName": "м. Кривий Ріг"
      },
      "geometry": null
    },
    {
      "type": "Feature",
      "properties": {
        "postcode": "50082",
        "settlementName": "м. Кривий Ріг"
      },
      "geometry": null
    },
    {
      "type": "Feature",
      "properties": {
        "postcode": "50083",
        "settlementName": "м. Кривий Ріг"
      },
      "geometry": null
    },
    {
      "type": "Feature",
      "properties": {
        "postcode": "50084",
        "settlementName": "м. Кривий Ріг"
      },
      "geometry": null
    },
    {
      "type": "Feature",
      "properties": {
        "postcode": "50085",
        "settlementName": "м. Кривий Ріг"
      },
      "geometry": null
    },
    {
      "type": "Feature",
      "properties": {
        "postcode": "50086",
        "settlementName": "м. Кривий Ріг"
      },
      "geometry": null
    },
    {
      "type": "Feature",
      "properties": {
        "postcode": "50087",
        "settlementName": "м. Кривий Ріг"
      },
      "geometry": null
    },
    {
      "type": "Feature",
      "properties": {
        "postcode": "50088",
        "settlementName": "м. Кривий Ріг"
      },
      "geometry": null
    },
    {
      "type": "Feature",
      "properties": {
        "postcode": "50089",
        "settlementName": "м. Кривий Ріг"
      },
      "geometry": null
    },
    {
      "type": "Feature",
      "properties": {
        "postcode": "50090",
        "settlementName": "м. Кривий Ріг"
      },
      "geometry": null
    },
    {
      "type": "Feature",
      "properties": {
        "postcode": "50091",
        "settlementName": "м. Кривий Ріг"
      },
      "geometry": null
    },
    {
      "type": "Feature",
      "properties": {
        "postcode": "50092",
        "settlementName": "м. Кривий Ріг"
      },
      "geometry": null
    },
    {
      "type": "Feature",
      "properties": {
        "postcode": "50093",
        "settlementName": "м. Кривий Ріг"
      },
      "geometry": null
    },
    {
      "type": "Feature",
      "properties": {
        "postcode": "50094",
        "settlementName": "м. Кривий Ріг"
      },
      "geometry": null
    },
    {
      "type": "Feature",
      "properties": {
        "postcode": "50095",
        "settlementName": "м. Кривий Ріг"
      },
      "geometry": null
    },
    {
      "type": "Feature",
      "properties": {
        "postcode": "50096",
        "settlementName": "м. Кривий Ріг"
      },
      "geometry": null
    },
    {
      "type": "Feature",
      "properties": {
        "postcode": "50097",
        "settlementName": "м. Кривий Ріг"
      },
      "geometry": null
    },
    {
      "type": "Feature",
      "properties": {
        "postcode": "50098",
        "settlementName": "м. Кривий Ріг"
      },
      "geometry": null
    },
    {
      "type": "Feature",
      "properties": {
        "postcode": "50099",
        "settlementName": "м. Кривий Ріг"
      },
      "geometry": null
    },
    {
      "type": "Feature",
      "properties": {
        "postcode": "50100",
        "settlementName": "м. Кривий Ріг"
      },
      "geometry": null
    },
    {
      "type": "Feature",
      "properties": {
        "postcode": "50101",
        "settlementName": "м. Кривий Ріг"
      },
      "geometry": null
    },
    {
      "type": "Feature",
      "properties": {
        "postcode": "50102",
        "settlementName": "м. Кривий Ріг"
      },
      "geometry": null
    },
    {
      "type": "Feature",
      "properties": {
        "postcode": "50103",
        "settlementName": "м. Кривий Ріг"
      },
      "geometry": null
    },
    {
      "type": "Feature",
      "properties": {
        "postcode": "50104",
        "settlementName": "м. Кривий Ріг"
      },
      "geometry": null
    },
    {
      "type": "Feature",
      "properties": {
        "postcode": "50105",
        "settlementName": "м. Кривий Ріг"
      },
      "geometry": null
    },
    {
      "type": "Feature",
      "properties": {
        "postcode": "50106",
        "settlementName": "м. Кривий Ріг"
      },
      "geometry": null
    },
    {
      "type": "Feature",
      "properties": {
        "postcode": "50480",
        "settlementName": "с-ще Гірницьке"
      },
      "geometry": null
    },
    {
      "type": "Feature",
      "properties": {
        "postcode": "50481",
        "settlementName": "с. Новоіванівка"
      },
      "geometry": null
    },
    {
      "type": "Feature",
      "properties": {
        "postcode": "50482",
        "settlementName": "с-ще Авангард"
      },
      "geometry": null
    },
    {
      "type": "Feature",
      "properties": {
        "postcode": "50483",
        "settlementName": "с-ще Коломійцеве"
      },
      "geometry": null
    },
    {
      "type": "Feature",
      "properties": {
        "postcode": "50484",
        "settlementName": "с. Тернуватий Кут"
      },
      "geometry": null
    },
    {
      "type": "Feature",
      "properties": {
        "postcode": "53001",
        "settlementName": "с. Глеюватка"
      },
      "geometry": null
    },
    {
      "type": "Feature",
      "properties": {
        "postcode": "53002",
        "settlementName": "с. Красна Балка"
      },
      "geometry": null
    },
    {
      "type": "Feature",
      "properties": {
        "postcode": "53003",
        "settlementName": "с. Новопілля"
      },
      "geometry": null
    },
    {
      "type": "Feature",
      "properties": {
        "postcode": "53004",
        "settlementName": "с. Коломійцеве"
      },
      "geometry": null
    },
    {
      "type": "Feature",
      "properties": {
        "postcode": "53005",
        "settlementName": "с. Андрусівка"
      },
      "geometry": null
    },
    {
      "type": "Feature",
      "properties": {
        "postcode": "53006",
        "settlementName": "с. Анастасівка"
      },
      "geometry": null
    },
    {
      "type": "Feature",
      "properties": {
        "postcode": "53007",
        "settlementName": "с. Зелений Луг"
      },
      "geometry": null
    },
    {
      "type": "Feature",
      "properties": {
        "postcode": "53008",
        "settlementName": "с. Братсько-Семенівка"
      },
      "geometry": null
    },
    {
      "type": "Feature",
      "properties": {
        "postcode": "53009",
        "settlementName": "с. Бурлацьке"
      },
      "geometry": null
    },
    {
      "type": "Feature",
      "properties": {
        "postcode": "53010",
        "settlementName": "с. Червоне"
      },
      "geometry": null
    },
    {
      "type": "Feature",
      "properties": {
        "postcode": "53011",
        "settlementName": "с. Калинівка"
      },
      "geometry": null
    },
    {
      "type": "Feature",
      "properties": {
        "postcode": "53012",
        "settlementName": "с. Недайвода"
      },
      "geometry": null
    },
    {
      "type": "Feature",
      "properties": {
        "postcode": "53013",
        "settlementName": "с. Веселий Кут"
      },
      "geometry": null
    },
    {
      "type": "Feature",
      "properties": {
        "postcode": "53014",
        "settlementName": "с. Високе Поле"
      },
      "geometry": null
    },
    {
      "type": "Feature",
      "properties": {
        "postcode": "53015",
        "settlementName": "с. Вільний Посад"
      },
      "geometry": null
    },
    {
      "type": "Feature",
      "properties": {
        "postcode": "53016",
        "settlementName": "с. Вільний Табір"
      },
      "geometry": null
    },
    {
      "type": "Feature",
      "properties": {
        "postcode": "53017",
        "settlementName": "с. Водяне"
      },
      "geometry": null
    },
    {
      "type": "Feature",
      "properties": {
        "postcode": "53018",
        "settlementName": "с. Гомельське"
      },
      "geometry": null
    },
    {
      "type": "Feature",
      "properties": {
        "postcode": "53019",
        "settlementName": "с. Грузька Григорівка"
      },
      "geometry": null
    },
    {
      "type": "Feature",
      "properties": {
        "postcode": "53020",
        "settlementName": "с. Лозуватка"
      },
      "geometry": null
    },
    {
      "type": "Feature",
      "properties": {
        "postcode": "53021",
        "settlementName": "с. Грузьке"
      },
      "geometry": null
    },
    {
      "type": "Feature",
      "properties": {
        "postcode": "53022",
        "settlementName": "с. Мар'янівка"
      },
      "geometry": null
    },
    {
      "type": "Feature",
      "properties": {
        "postcode": "53023",
        "settlementName": "с. Дружба"
      },
      "geometry": null
    },
    {
      "type": "Feature",
      "properties": {
        "postcode": "53024",
        "settlementName": "с. Запорожець"
      },
      "geometry": null
    },
    {
      "type": "Feature",
      "properties": {
        "postcode": "53025",
        "settlementName": "с. Зелений Гай"
      },
      "geometry": null
    },
    {
      "type": "Feature",
      "properties": {
        "postcode": "53026",
        "settlementName": "с-ще Рудничне"
      },
      "geometry": null
    },
    {
      "type": "Feature",
      "properties": {
        "postcode": "53027",
        "settlementName": "с. Златопіль"
      },
      "geometry": null
    },
    {
      "type": "Feature",
      "properties": {
        "postcode": "53028",
        "settlementName": "с. Золота Поляна"
      },
      "geometry": null
    },
    {
      "type": "Feature",
      "properties": {
        "postcode": "53029",
        "settlementName": "с. Зоря"
      },
      "geometry": null
    },
    {
      "type": "Feature",
      "properties": {
        "postcode": "53030",
        "settlementName": "с. Іванівка"
      },
      "geometry": null
    },
    {
      "type": "Feature",
      "properties": {
        "postcode": "53031",
        "settlementName": "с. Радіонівка"
      },
      "geometry": null
    },
    {
      "type": "Feature",
      "properties": {
        "postcode": "53032",
        "settlementName": "с. Вільне"
      },
      "geometry": null
    },
    {
      "type": "Feature",
      "properties": {
        "postcode": "53033",
        "settlementName": "с. Інгулець"
      },
      "geometry": null
    },
    {
      "type": "Feature",
      "properties": {
        "postcode": "53034",
        "settlementName": "с. Кам'яне Поле"
      },
      "geometry": null
    },
    {
      "type": "Feature",
      "properties": {
        "postcode": "53035",
        "settlementName": "с. Кам'янське"
      },
      "geometry": null
    },
    {
      "type": "Feature",
      "properties": {
        "postcode": "53036",
        "settlementName": "с. Лісове"
      },
      "geometry": null
    },
    {
      "type": "Feature",
      "properties": {
        "postcode": "53037",
        "settlementName": "с. Іванівка"
      },
      "geometry": null
    },
    {
      "type": "Feature",
      "properties": {
        "postcode": "53038",
        "settlementName": "с. Красне"
      },
      "geometry": null
    },
    {
      "type": "Feature",
      "properties": {
        "postcode": "53039",
        "settlementName": "с. Кривбас"
      },
      "geometry": null
    },
    {
      "type": "Feature",
      "properties": {
        "postcode": "53040",
        "settlementName": "с. Шевченківське"
      },
      "geometry": null
    },
    {
      "type": "Feature",
      "properties": {
        "postcode": "53041",
        "settlementName": "с. Зелене Поле"
      },
      "geometry": null
    },
    {
      "type": "Feature",
      "properties": {
        "postcode": "53042",
        "settlementName": "с. Нова Надія"
      },
      "geometry": null
    },
    {
      "type": "Feature",
      "properties": {
        "postcode": "53043",
        "settlementName": "с. Кудашівка"
      },
      "geometry": null
    },
    {
      "type": "Feature",
      "properties": {
        "postcode": "53044",
        "settlementName": "с. Садове"
      },
      "geometry": null
    },
    {
      "type": "Feature",
      "properties": {
        "postcode": "53045",
        "settlementName": "с-ще Лісопитомник"
      },
      "geometry": null
    },
    {
      "type": "Feature",
      "properties": {
        "postcode": "53046",
        "settlementName": "с. Львів"
      },
      "geometry": null
    },
    {
      "type": "Feature",
      "properties": {
        "postcode": "53047",
        "settlementName": "с. Дніпровка"
      },
      "geometry": null
    },
    {
      "type": "Feature",
      "properties": {
        "postcode": "53048",
        "settlementName": "с. Маяк"
      },
      "geometry": null
    },
    {
      "type": "Feature",
      "properties": {
        "postcode": "53049",
        "settlementName": "с. Нова Зоря"
      },
      "geometry": null
    },
    {
      "type": "Feature",
      "properties": {
        "postcode": "53050",
        "settlementName": "с. Софіївка"
      },
      "geometry": null
    },
    {
      "type": "Feature",
      "properties": {
        "postcode": "53051",
        "settlementName": "с. Новий Мир"
      },
      "geometry": null
    },
    {
      "type": "Feature",
      "properties": {
        "postcode": "53052",
        "settlementName": "с-ще Христофорівка"
      },
      "geometry": null
    },
    {
      "type": "Feature",
      "properties": {
        "postcode": "53053",
        "settlementName": "с. Новий Шлях"
      },
      "geometry": null
    },
    {
      "type": "Feature",
      "properties": {
        "postcode": "53054",
        "settlementName": "с. Гейківка"
      },
      "geometry": null
    },
    {
      "type": "Feature",
      "properties": {
        "postcode": "53055",
        "settlementName": "с-ще Нові Садки"
      },
      "geometry": null
    },
    {
      "type": "Feature",
      "properties": {
        "postcode": "53056",
        "settlementName": "с. Новогригорівка"
      },
      "geometry": null
    },
    {
      "type": "Feature",
      "properties": {
        "postcode": "53057",
        "settlementName": "с. Новоганнівка"
      },
      "geometry": null
    },
    {
      "type": "Feature",
      "properties": {
        "postcode": "53058",
        "settlementName": "с. Новоіванівка"
      },
      "geometry": null
    },
    {
      "type": "Feature",
      "properties": {
        "postcode": "53059",
        "settlementName": "с. Новолозуватка"
      },
      "geometry": null
    },
    {
      "type": "Feature",
      "properties": {
        "postcode": "53060",
        "settlementName": "с. Данилівка"
      },
      "geometry": null
    },
    {
      "type": "Feature",
      "properties": {
        "postcode": "53061",
        "settlementName": "с-ще Мусіївка"
      },
      "geometry": null
    },
    {
      "type": "Feature",
      "properties": {
        "postcode": "53062",
        "settlementName": "с. Новомайське"
      },
      "geometry": null
    },
    {
      "type": "Feature",
      "properties": {
        "postcode": "53063",
        "settlementName": "с. Новомар'янівське"
      },
      "geometry": null
    },
    {
      "type": "Feature",
      "properties": {
        "postcode": "53064",
        "settlementName": "с. Базарове"
      },
      "geometry": null
    },
    {
      "type": "Feature",
      "properties": {
        "postcode": "53065",
        "settlementName": "с. Новоселівка"
      },
      "geometry": null
    },
    {
      "type": "Feature",
      "properties": {
        "postcode": "53066",
        "settlementName": "с. Павлівка"
      },
      "geometry": null
    },
    {
      "type": "Feature",
      "properties": {
        "postcode": "53067",
        "settlementName": "с-ще Пичугине"
      },
      "geometry": null
    },
    {
      "type": "Feature",
      "properties": {
        "postcode": "53068",
        "settlementName": "с. Надія"
      },
      "geometry": null
    },
    {
      "type": "Feature",
      "properties": {
        "postcode": "53069",
        "settlementName": "с. Раєво-Олександрівка"
      },
      "geometry": null
    },
    {
      "type": "Feature",
      "properties": {
        "postcode": "53070",
        "settlementName": "с. Широке"
      },
      "geometry": null
    },
    {
      "type": "Feature",
      "properties": {
        "postcode": "53071",
        "settlementName": "с. Красівське"
      },
      "geometry": null
    },
    {
      "type": "Feature",
      "properties": {
        "postcode": "53072",
        "settlementName": "с. Новожитомир"
      },
      "geometry": null
    },
    {
      "type": "Feature",
      "properties": {
        "postcode": "53073",
        "settlementName": "с. Златоустівка"
      },
      "geometry": null
    },
    {
      "type": "Feature",
      "properties": {
        "postcode": "53074",
        "settlementName": "с. Романівка"
      },
      "geometry": null
    },
    {
      "type": "Feature",
      "properties": {
        "postcode": "53075",
        "settlementName": "с. Новий Кременчук"
      },
      "geometry": null
    },
    {
      "type": "Feature",
      "properties": {
        "postcode": "53076",
        "settlementName": "с. Близнюки"
      },
      "geometry": null
    },
    {
      "type": "Feature",
      "properties": {
        "postcode": "53077",
        "settlementName": "с. Тернівка"
      },
      "geometry": null
    },
    {
      "type": "Feature",
      "properties": {
        "postcode": "53078",
        "settlementName": "с. Тернуватка"
      },
      "geometry": null
    },
    {
      "type": "Feature",
      "properties": {
        "postcode": "53079",
        "settlementName": "с. Трудове"
      },
      "geometry": null
    },
    {
      "type": "Feature",
      "properties": {
        "postcode": "53080",
        "settlementName": "с. Веселе"
      },
      "geometry": null
    },
    {
      "type": "Feature",
      "properties": {
        "postcode": "53081",
        "settlementName": "с-ще Радушне"
      },
      "geometry": null
    },
    {
      "type": "Feature",
      "properties": {
        "postcode": "53082",
        "settlementName": "с. Новопокровка"
      },
      "geometry": null
    },
    {
      "type": "Feature",
      "properties": {
        "postcode": "53084",
        "settlementName": "с. Чабанове"
      },
      "geometry": null
    },
    {
      "type": "Feature",
      "properties": {
        "postcode": "53085",
        "settlementName": "с. Степове"
      },
      "geometry": null
    },
    {
      "type": "Feature",
      "properties": {
        "postcode": "53086",
        "settlementName": "с-ще Червона Поляна"
      },
      "geometry": null
    },
    {
      "type": "Feature",
      "properties": {
        "postcode": "53087",
        "settlementName": "с. Червоні Поди"
      },
      "geometry": null
    },
    {
      "type": "Feature",
      "properties": {
        "postcode": "53088",
        "settlementName": "с. Карачунівка"
      },
      "geometry": null
    },
    {
      "type": "Feature",
      "properties": {
        "postcode": "53089",
        "settlementName": "с. Нова Надія"
      },
      "geometry": null
    },
    {
      "type": "Feature",
      "properties": {
        "postcode": "53092",
        "settlementName": "с. Ранній Ранок"
      },
      "geometry": null
    },
    {
      "type": "Feature",
      "properties": {
        "postcode": "53100",
        "settlementName": "с-ще Софіївка"
      },
      "geometry": null
    },
    {
      "type": "Feature",
      "properties": {
        "postcode": "53101",
        "settlementName": "с-ще Софіївка"
      },
      "geometry": null
    },
    {
      "type": "Feature",
      "properties": {
        "postcode": "53103",
        "settlementName": "с. Базавлучок"
      },
      "geometry": null
    },
    {
      "type": "Feature",
      "properties": {
        "postcode": "53104",
        "settlementName": "с. Братське"
      },
      "geometry": null
    },
    {
      "type": "Feature",
      "properties": {
        "postcode": "53105",
        "settlementName": "с. Вербове"
      },
      "geometry": null
    },
    {
      "type": "Feature",
      "properties": {
        "postcode": "53106",
        "settlementName": "с. Веселе Поле"
      },
      "geometry": null
    },
    {
      "type": "Feature",
      "properties": {
        "postcode": "53107",
        "settlementName": "с. Петрове"
      },
      "geometry": null
    },
    {
      "type": "Feature",
      "properties": {
        "postcode": "53109",
        "settlementName": "с. Володимирівка"
      },
      "geometry": null
    },
    {
      "type": "Feature",
      "properties": {
        "postcode": "53110",
        "settlementName": "с. Ордо-Василівка"
      },
      "geometry": null
    },
    {
      "type": "Feature",
      "properties": {
        "postcode": "53111",
        "settlementName": "с. Мар'ївка"
      },
      "geometry": null
    },
    {
      "type": "Feature",
      "properties": {
        "postcode": "53112",
        "settlementName": "с. Сергіївка"
      },
      "geometry": null
    },
    {
      "type": "Feature",
      "properties": {
        "postcode": "53113",
        "settlementName": "с. Гончарове"
      },
      "geometry": null
    },
    {
      "type": "Feature",
      "properties": {
        "postcode": "53114",
        "settlementName": "с. Грушки"
      },
      "geometry": null
    },
    {
      "type": "Feature",
      "properties": {
        "postcode": "53115",
        "settlementName": "с. Довгівка"
      },
      "geometry": null
    },
    {
      "type": "Feature",
      "properties": {
        "postcode": "53116",
        "settlementName": "с. Зав'ялівка"
      },
      "geometry": null
    },
    {
      "type": "Feature",
      "properties": {
        "postcode": "53117",
        "settlementName": "с. Мотина Балка"
      },
      "geometry": null
    },
    {
      "type": "Feature",
      "properties": {
        "postcode": "53119",
        "settlementName": "с. Зелений Гай"
      },
      "geometry": null
    },
    {
      "type": "Feature",
      "properties": {
        "postcode": "53120",
        "settlementName": "с. Козацька Слобода"
      },
      "geometry": null
    },
    {
      "type": "Feature",
      "properties": {
        "postcode": "53121",
        "settlementName": "с. Макорти"
      },
      "geometry": null
    },
    {
      "type": "Feature",
      "properties": {
        "postcode": "53122",
        "settlementName": "с. Андріївка"
      },
      "geometry": null
    },
    {
      "type": "Feature",
      "properties": {
        "postcode": "53123",
        "settlementName": "с. Криничувате"
      },
      "geometry": null
    },
    {
      "type": "Feature",
      "properties": {
        "postcode": "53125",
        "settlementName": "с. Ковалеве"
      },
      "geometry": null
    },
    {
      "type": "Feature",
      "properties": {
        "postcode": "53126",
        "settlementName": "с. Кодак"
      },
      "geometry": null
    },
    {
      "type": "Feature",
      "properties": {
        "postcode": "53127",
        "settlementName": "с. Кринички"
      },
      "geometry": null
    },
    {
      "type": "Feature",
      "properties": {
        "postcode": "53128",
        "settlementName": "с. Явдохівка"
      },
      "geometry": null
    },
    {
      "type": "Feature",
      "properties": {
        "postcode": "53129",
        "settlementName": "с. Дачне"
      },
      "geometry": null
    },
    {
      "type": "Feature",
      "properties": {
        "postcode": "53130",
        "settlementName": "с. Водяне"
      },
      "geometry": null
    },
    {
      "type": "Feature",
      "properties": {
        "postcode": "53131",
        "settlementName": "с. Яр"
      },
      "geometry": null
    },
    {
      "type": "Feature",
      "properties": {
        "postcode": "53132",
        "settlementName": "с. Девладове"
      },
      "geometry": null
    },
    {
      "type": "Feature",
      "properties": {
        "postcode": "53133",
        "settlementName": "с. Любе"
      },
      "geometry": null
    },
    {
      "type": "Feature",
      "properties": {
        "postcode": "53134",
        "settlementName": "с. Нові Ковна"
      },
      "geometry": null
    },
    {
      "type": "Feature",
      "properties": {
        "postcode": "53135",
        "settlementName": "с. Променисте"
      },
      "geometry": null
    },
    {
      "type": "Feature",
      "properties": {
        "postcode": "53136",
        "settlementName": "с. Мар'є-Дмитрівка"
      },
      "geometry": null
    },
    {
      "type": "Feature",
      "properties": {
        "postcode": "53137",
        "settlementName": "с. Мар'є-Костянтинівка"
      },
      "geometry": null
    },
    {
      "type": "Feature",
      "properties": {
        "postcode": "53138",
        "settlementName": "с. Катеринівка"
      },
      "geometry": null
    },
    {
      "type": "Feature",
      "properties": {
        "postcode": "53139",
        "settlementName": "с. Михайлівка"
      },
      "geometry": null
    },
    {
      "type": "Feature",
      "properties": {
        "postcode": "53140",
        "settlementName": "с. Запорізьке"
      },
      "geometry": null
    },
    {
      "type": "Feature",
      "properties": {
        "postcode": "53141",
        "settlementName": "с. Любимівка"
      },
      "geometry": null
    },
    {
      "type": "Feature",
      "properties": {
        "postcode": "53142",
        "settlementName": "с. Непереможне"
      },
      "geometry": null
    },
    {
      "type": "Feature",
      "properties": {
        "postcode": "53143",
        "settlementName": "с. Нова Зоря"
      },
      "geometry": null
    },
    {
      "type": "Feature",
      "properties": {
        "postcode": "53145",
        "settlementName": "с. Райполе"
      },
      "geometry": null
    },
    {
      "type": "Feature",
      "properties": {
        "postcode": "53146",
        "settlementName": "с. Нововітебське"
      },
      "geometry": null
    },
    {
      "type": "Feature",
      "properties": {
        "postcode": "53147",
        "settlementName": "с. Новомихайлівка"
      },
      "geometry": null
    },
    {
      "type": "Feature",
      "properties": {
        "postcode": "53149",
        "settlementName": "с. Новопетрівка"
      },
      "geometry": null
    },
    {
      "type": "Feature",
      "properties": {
        "postcode": "53150",
        "settlementName": "с. Новоюлівка"
      },
      "geometry": null
    },
    {
      "type": "Feature",
      "properties": {
        "postcode": "53151",
        "settlementName": "с. Авдотівка"
      },
      "geometry": null
    },
    {
      "type": "Feature",
      "properties": {
        "postcode": "53152",
        "settlementName": "с. Новохортиця"
      },
      "geometry": null
    },
    {
      "type": "Feature",
      "properties": {
        "postcode": "53153",
        "settlementName": "с. Новоподільське"
      },
      "geometry": null
    },
    {
      "type": "Feature",
      "properties": {
        "postcode": "53154",
        "settlementName": "с. Одрубок"
      },
      "geometry": null
    },
    {
      "type": "Feature",
      "properties": {
        "postcode": "53155",
        "settlementName": "с. Олександрівка"
      },
      "geometry": null
    },
    {
      "type": "Feature",
      "properties": {
        "postcode": "53156",
        "settlementName": "с. Новоолексіївка"
      },
      "geometry": null
    },
    {
      "type": "Feature",
      "properties": {
        "postcode": "53157",
        "settlementName": "с. Петрівка"
      },
      "geometry": null
    },
    {
      "type": "Feature",
      "properties": {
        "postcode": "53159",
        "settlementName": "с. Павлівка"
      },
      "geometry": null
    },
    {
      "type": "Feature",
      "properties": {
        "postcode": "53160",
        "settlementName": "с. Кам'янка"
      },
      "geometry": null
    },
    {
      "type": "Feature",
      "properties": {
        "postcode": "53161",
        "settlementName": "с. Вишневе"
      },
      "geometry": null
    },
    {
      "type": "Feature",
      "properties": {
        "postcode": "53162",
        "settlementName": "с. Олексіївка"
      },
      "geometry": null
    },
    {
      "type": "Feature",
      "properties": {
        "postcode": "53164",
        "settlementName": "с. Потоцьке"
      },
      "geometry": null
    },
    {
      "type": "Feature",
      "properties": {
        "postcode": "53165",
        "settlementName": "с. Петропавлівка"
      },
      "geometry": null
    },
    {
      "type": "Feature",
      "properties": {
        "postcode": "53166",
        "settlementName": "с. Широке"
      },
      "geometry": null
    },
    {
      "type": "Feature",
      "properties": {
        "postcode": "53167",
        "settlementName": "с. Садове"
      },
      "geometry": null
    },
    {
      "type": "Feature",
      "properties": {
        "postcode": "53169",
        "settlementName": "с. Спокій"
      },
      "geometry": null
    },
    {
      "type": "Feature",
      "properties": {
        "postcode": "53170",
        "settlementName": "с. Нововасилівка"
      },
      "geometry": null
    },
    {
      "type": "Feature",
      "properties": {
        "postcode": "53171",
        "settlementName": "с. Жовте"
      },
      "geometry": null
    },
    {
      "type": "Feature",
      "properties": {
        "postcode": "53172",
        "settlementName": "с. Вакулове"
      },
      "geometry": null
    },
    {
      "type": "Feature",
      "properties": {
        "postcode": "53173",
        "settlementName": "с. Мар'ївка"
      },
      "geometry": null
    },
    {
      "type": "Feature",
      "properties": {
        "postcode": "53174",
        "settlementName": "с. Степове"
      },
      "geometry": null
    },
    {
      "type": "Feature",
      "properties": {
        "postcode": "53175",
        "settlementName": "с. Тарасівка"
      },
      "geometry": null
    },
    {
      "type": "Feature",
      "properties": {
        "postcode": "53176",
        "settlementName": "с. Тернуватка"
      },
      "geometry": null
    },
    {
      "type": "Feature",
      "properties": {
        "postcode": "53177",
        "settlementName": "с. Трудолюбівка"
      },
      "geometry": null
    },
    {
      "type": "Feature",
      "properties": {
        "postcode": "53178",
        "settlementName": "с. Українка"
      },
      "geometry": null
    },
    {
      "type": "Feature",
      "properties": {
        "postcode": "53179",
        "settlementName": "с. Поле"
      },
      "geometry": null
    },
    {
      "type": "Feature",
      "properties": {
        "postcode": "53180",
        "settlementName": "с. Миколаївка"
      },
      "geometry": null
    },
    {
      "type": "Feature",
      "properties": {
        "postcode": "53181",
        "settlementName": "с. Олександро-Білівка"
      },
      "geometry": null
    },
    {
      "type": "Feature",
      "properties": {
        "postcode": "53182",
        "settlementName": "с. Володимирівка"
      },
      "geometry": null
    },
    {
      "type": "Feature",
      "properties": {
        "postcode": "53183",
        "settlementName": "с-ще Лошкарівка"
      },
      "geometry": null
    },
    {
      "type": "Feature",
      "properties": {
        "postcode": "53185",
        "settlementName": "с. Вільне Життя"
      },
      "geometry": null
    },
    {
      "type": "Feature",
      "properties": {
        "postcode": "53186",
        "settlementName": "с. Ганно-Миколаївка"
      },
      "geometry": null
    },
    {
      "type": "Feature",
      "properties": {
        "postcode": "53187",
        "settlementName": "с. Калашники"
      },
      "geometry": null
    },
    {
      "type": "Feature",
      "properties": {
        "postcode": "53188",
        "settlementName": "с. Назарівка"
      },
      "geometry": null
    },
    {
      "type": "Feature",
      "properties": {
        "postcode": "53190",
        "settlementName": "с. Південне"
      },
      "geometry": null
    },
    {
      "type": "Feature",
      "properties": {
        "postcode": "53700",
        "settlementName": "с-ще Широке"
      },
      "geometry": null
    },
    {
      "type": "Feature",
      "properties": {
        "postcode": "53701",
        "settlementName": "с. Весела Дача"
      },
      "geometry": null
    },
    {
      "type": "Feature",
      "properties": {
        "postcode": "53702",
        "settlementName": "с. Веселий Став"
      },
      "geometry": null
    },
    {
      "type": "Feature",
      "properties": {
        "postcode": "53703",
        "settlementName": "с. Вишневе"
      },
      "geometry": null
    },
    {
      "type": "Feature",
      "properties": {
        "postcode": "53704",
        "settlementName": "с. Ганнівка"
      },
      "geometry": null
    },
    {
      "type": "Feature",
      "properties": {
        "postcode": "53705",
        "settlementName": "с. Городуватка"
      },
      "geometry": null
    },
    {
      "type": "Feature",
      "properties": {
        "postcode": "53706",
        "settlementName": "с. Григорівка"
      },
      "geometry": null
    },
    {
      "type": "Feature",
      "properties": {
        "postcode": "53707",
        "settlementName": "с. Свистунове"
      },
      "geometry": null
    },
    {
      "type": "Feature",
      "properties": {
        "postcode": "53708",
        "settlementName": "с. Дем'янівка"
      },
      "geometry": null
    },
    {
      "type": "Feature",
      "properties": {
        "postcode": "53709",
        "settlementName": "с. Нове"
      },
      "geometry": null
    },
    {
      "type": "Feature",
      "properties": {
        "postcode": "53710",
        "settlementName": "с. Зелена Балка"
      },
      "geometry": null
    },
    {
      "type": "Feature",
      "properties": {
        "postcode": "53711",
        "settlementName": "с. Новоселівка"
      },
      "geometry": null
    },
    {
      "type": "Feature",
      "properties": {
        "postcode": "53712",
        "settlementName": "с. Зелений Гай"
      },
      "geometry": null
    },
    {
      "type": "Feature",
      "properties": {
        "postcode": "53713",
        "settlementName": "с. Зелений Став"
      },
      "geometry": null
    },
    {
      "type": "Feature",
      "properties": {
        "postcode": "53714",
        "settlementName": "с. Інгулець"
      },
      "geometry": null
    },
    {
      "type": "Feature",
      "properties": {
        "postcode": "53715",
        "settlementName": "с. Казанківка"
      },
      "geometry": null
    },
    {
      "type": "Feature",
      "properties": {
        "postcode": "53716",
        "settlementName": "с. Калинівка"
      },
      "geometry": null
    },
    {
      "type": "Feature",
      "properties": {
        "postcode": "53717",
        "settlementName": "с. Мирне"
      },
      "geometry": null
    },
    {
      "type": "Feature",
      "properties": {
        "postcode": "53718",
        "settlementName": "с. Кошове"
      },
      "geometry": null
    },
    {
      "type": "Feature",
      "properties": {
        "postcode": "53719",
        "settlementName": "с. Кравці"
      },
      "geometry": null
    },
    {
      "type": "Feature",
      "properties": {
        "postcode": "53720",
        "settlementName": "с. Червоне"
      },
      "geometry": null
    },
    {
      "type": "Feature",
      "properties": {
        "postcode": "53721",
        "settlementName": "с. Новомалинівка"
      },
      "geometry": null
    },
    {
      "type": "Feature",
      "properties": {
        "postcode": "53722",
        "settlementName": "с. Явдотівка"
      },
      "geometry": null
    },
    {
      "type": "Feature",
      "properties": {
        "postcode": "53723",
        "settlementName": "с. Олександрія"
      },
      "geometry": null
    },
    {
      "type": "Feature",
      "properties": {
        "postcode": "53724",
        "settlementName": "с. Макарівка"
      },
      "geometry": null
    },
    {
      "type": "Feature",
      "properties": {
        "postcode": "53725",
        "settlementName": "с. Малинівка"
      },
      "geometry": null
    },
    {
      "type": "Feature",
      "properties": {
        "postcode": "53727",
        "settlementName": "с. Озерне"
      },
      "geometry": null
    },
    {
      "type": "Feature",
      "properties": {
        "postcode": "53728",
        "settlementName": "с. Могилівка"
      },
      "geometry": null
    },
    {
      "type": "Feature",
      "properties": {
        "postcode": "53729",
        "settlementName": "с. Надія"
      },
      "geometry": null
    },
    {
      "type": "Feature",
      "properties": {
        "postcode": "53730",
        "settlementName": "с. Олександрівка"
      },
      "geometry": null
    },
    {
      "type": "Feature",
      "properties": {
        "postcode": "53731",
        "settlementName": "с. Миролюбівка"
      },
      "geometry": null
    },
    {
      "type": "Feature",
      "properties": {
        "postcode": "53732",
        "settlementName": "с. Гречані Поди"
      },
      "geometry": null
    },
    {
      "type": "Feature",
      "properties": {
        "postcode": "53733",
        "settlementName": "с. Степове"
      },
      "geometry": null
    },
    {
      "type": "Feature",
      "properties": {
        "postcode": "53734",
        "settlementName": "с. Водяне"
      },
      "geometry": null
    },
    {
      "type": "Feature",
      "properties": {
        "postcode": "53735",
        "settlementName": "с. Нове Життя"
      },
      "geometry": null
    },
    {
      "type": "Feature",
      "properties": {
        "postcode": "53738",
        "settlementName": "с. Курганка"
      },
      "geometry": null
    },
    {
      "type": "Feature",
      "properties": {
        "postcode": "53739",
        "settlementName": "с. Новоукраїнка"
      },
      "geometry": null
    },
    {
      "type": "Feature",
      "properties": {
        "postcode": "53741",
        "settlementName": "с. Радевичеве"
      },
      "geometry": null
    },
    {
      "type": "Feature",
      "properties": {
        "postcode": "53742",
        "settlementName": "с. Карпівка"
      },
      "geometry": null
    },
    {
      "type": "Feature",
      "properties": {
        "postcode": "53743",
        "settlementName": "с. Тихий Став"
      },
      "geometry": null
    },
    {
      "type": "Feature",
      "properties": {
        "postcode": "53744",
        "settlementName": "с. Подидар"
      },
      "geometry": null
    },
    {
      "type": "Feature",
      "properties": {
        "postcode": "53745",
        "settlementName": "с. Подове"
      },
      "geometry": null
    },
    {
      "type": "Feature",
      "properties": {
        "postcode": "53746",
        "settlementName": "с. Пологи"
      },
      "geometry": null
    },
    {
      "type": "Feature",
      "properties": {
        "postcode": "53747",
        "settlementName": "с. Полтавка"
      },
      "geometry": null
    },
    {
      "type": "Feature",
      "properties": {
        "postcode": "53748",
        "settlementName": "с. Красний Під"
      },
      "geometry": null
    },
    {
      "type": "Feature",
      "properties": {
        "postcode": "53749",
        "settlementName": "с. Розівка"
      },
      "geometry": null
    },
    {
      "type": "Feature",
      "properties": {
        "postcode": "53750",
        "settlementName": "с. Запоріжжя"
      },
      "geometry": null
    },
    {
      "type": "Feature",
      "properties": {
        "postcode": "53751",
        "settlementName": "с. Благодатне"
      },
      "geometry": null
    },
    {
      "type": "Feature",
      "properties": {
        "postcode": "53752",
        "settlementName": "с. Дачне"
      },
      "geometry": null
    },
    {
      "type": "Feature",
      "properties": {
        "postcode": "53753",
        "settlementName": "с. Стародобровільське"
      },
      "geometry": null
    },
    {
      "type": "Feature",
      "properties": {
        "postcode": "53755",
        "settlementName": "с. Червоний Ранок"
      },
      "geometry": null
    },
    {
      "type": "Feature",
      "properties": {
        "postcode": "53756",
        "settlementName": "с. Трудолюбівка"
      },
      "geometry": null
    },
    {
      "type": "Feature",
      "properties": {
        "postcode": "53757",
        "settlementName": "с. Цвіткове"
      },
      "geometry": null
    },
    {
      "type": "Feature",
      "properties": {
        "postcode": "53759",
        "settlementName": "с. Плугатар"
      },
      "geometry": null
    },
    {
      "type": "Feature",
      "properties": {
        "postcode": "53760",
        "settlementName": "с. Андріївка"
      },
      "geometry": null
    },
    {
      "type": "Feature",
      "properties": {
        "postcode": "53761",
        "settlementName": "с. Шестірня"
      },
      "geometry": null
    },
    {
      "type": "Feature",
      "properties": {
        "postcode": "53762",
        "settlementName": "с. Щасливе"
      },
      "geometry": null
    },
    {
      "type": "Feature",
      "properties": {
        "postcode": "53763",
        "settlementName": "с. Шведове"
      },
      "geometry": null
    },
    {
      "type": "Feature",
      "properties": {
        "postcode": "53764",
        "settlementName": "с. Широка Дача"
      },
      "geometry": null
    },
    {
      "type": "Feature",
      "properties": {
        "postcode": "53765",
        "settlementName": "с. Широка Долина"
      },
      "geometry": null
    },
    {
      "type": "Feature",
      "properties": {
        "postcode": "53766",
        "settlementName": "с. Яблунівка"
      },
      "geometry": null
    },
    {
      "type": "Feature",
      "properties": {
        "postcode": "53768",
        "settlementName": "с. Латівка"
      },
      "geometry": null
    },
    {
      "type": "Feature",
      "properties": {
        "postcode": "53769",
        "settlementName": "с. Кряжове"
      },
      "geometry": null
    },
    {
      "type": "Feature",
      "properties": {
        "postcode": "53770",
        "settlementName": "с. Оленівка"
      },
      "geometry": null
    },
    {
      "type": "Feature",
      "properties": {
        "postcode": "53771",
        "settlementName": "с. Одрадне"
      },
      "geometry": null
    },
    {
      "type": "Feature",
      "properties": {
        "postcode": "53772",
        "settlementName": "с. Новолатівка"
      },
      "geometry": null
    },
    {
      "type": "Feature",
      "properties": {
        "postcode": "53801",
        "settlementName": "с. Новосеменівка"
      },
      "geometry": null
    },
    {
      "type": "Feature",
      "properties": {
        "postcode": "53802",
        "settlementName": "м. Апостолове"
      },
      "geometry": null
    },
    {
      "type": "Feature",
      "properties": {
        "postcode": "53803",
        "settlementName": "с. Катеринівка"
      },
      "geometry": null
    },
    {
      "type": "Feature",
      "properties": {
        "postcode": "53804",
        "settlementName": "с-ще Тік"
      },
      "geometry": null
    },
    {
      "type": "Feature",
      "properties": {
        "postcode": "53805",
        "settlementName": "с-ще Українка"
      },
      "geometry": null
    },
    {
      "type": "Feature",
      "properties": {
        "postcode": "53810",
        "settlementName": "с. Нива Трудова"
      },
      "geometry": null
    },
    {
      "type": "Feature",
      "properties": {
        "postcode": "53811",
        "settlementName": "с. Вільне"
      },
      "geometry": null
    },
    {
      "type": "Feature",
      "properties": {
        "postcode": "53812",
        "settlementName": "с. Володимирівка"
      },
      "geometry": null
    },
    {
      "type": "Feature",
      "properties": {
        "postcode": "53813",
        "settlementName": "с. Сергіївка"
      },
      "geometry": null
    },
    {
      "type": "Feature",
      "properties": {
        "postcode": "53814",
        "settlementName": "с. Веселі Чумаки"
      },
      "geometry": null
    },
    {
      "type": "Feature",
      "properties": {
        "postcode": "53815",
        "settlementName": "с. Єлизаветпілля"
      },
      "geometry": null
    },
    {
      "type": "Feature",
      "properties": {
        "postcode": "53816",
        "settlementName": "с. Червона Колона"
      },
      "geometry": null
    },
    {
      "type": "Feature",
      "properties": {
        "postcode": "53817",
        "settlementName": "с. Мала Долина"
      },
      "geometry": null
    },
    {
      "type": "Feature",
      "properties": {
        "postcode": "53818",
        "settlementName": "с-ще Вільний Запорожець"
      },
      "geometry": null
    },
    {
      "type": "Feature",
      "properties": {
        "postcode": "53819",
        "settlementName": "с. Новомар'янівка"
      },
      "geometry": null
    },
    {
      "type": "Feature",
      "properties": {
        "postcode": "53820",
        "settlementName": "с. Михайлівка"
      },
      "geometry": null
    },
    {
      "type": "Feature",
      "properties": {
        "postcode": "53821",
        "settlementName": "с. Широчани"
      },
      "geometry": null
    },
    {
      "type": "Feature",
      "properties": {
        "postcode": "53822",
        "settlementName": "с. Михайло-Заводське"
      },
      "geometry": null
    },
    {
      "type": "Feature",
      "properties": {
        "postcode": "53823",
        "settlementName": "с. Шевченко"
      },
      "geometry": null
    },
    {
      "type": "Feature",
      "properties": {
        "postcode": "53824",
        "settlementName": "с. Новоукраїнське"
      },
      "geometry": null
    },
    {
      "type": "Feature",
      "properties": {
        "postcode": "53825",
        "settlementName": "с. Садове"
      },
      "geometry": null
    },
    {
      "type": "Feature",
      "properties": {
        "postcode": "53826",
        "settlementName": "с. Слов'янка"
      },
      "geometry": null
    },
    {
      "type": "Feature",
      "properties": {
        "postcode": "53827",
        "settlementName": "с. Солдатське"
      },
      "geometry": null
    },
    {
      "type": "Feature",
      "properties": {
        "postcode": "53828",
        "settlementName": "с. Тарасо-Григорівка"
      },
      "geometry": null
    },
    {
      "type": "Feature",
      "properties": {
        "postcode": "53829",
        "settlementName": "с. Зоряне"
      },
      "geometry": null
    },
    {
      "type": "Feature",
      "properties": {
        "postcode": "53830",
        "settlementName": "с. Кам'янка"
      },
      "geometry": null
    },
    {
      "type": "Feature",
      "properties": {
        "postcode": "53831",
        "settlementName": "с. Новоіванівка"
      },
      "geometry": null
    },
    {
      "type": "Feature",
      "properties": {
        "postcode": "53832",
        "settlementName": "с-ще Жовте"
      },
      "geometry": null
    },
    {
      "type": "Feature",
      "properties": {
        "postcode": "53833",
        "settlementName": "с. Нова Січ"
      },
      "geometry": null
    },
    {
      "type": "Feature",
      "properties": {
        "postcode": "53840",
        "settlementName": "с. Козацький Кут"
      },
      "geometry": null
    },
    {
      "type": "Feature",
      "properties": {
        "postcode": "53841",
        "settlementName": "с. Запорізьке"
      },
      "geometry": null
    },
    {
      "type": "Feature",
      "properties": {
        "postcode": "53842",
        "settlementName": "с. Мар'янське"
      },
      "geometry": null
    },
    {
      "type": "Feature",
      "properties": {
        "postcode": "53850",
        "settlementName": "с. Грушівка"
      },
      "geometry": null
    },
    {
      "type": "Feature",
      "properties": {
        "postcode": "53852",
        "settlementName": "с. Червоний Тік"
      },
      "geometry": null
    },
    {
      "type": "Feature",
      "properties": {
        "postcode": "53853",
        "settlementName": "с-ще Токівське"
      },
      "geometry": null
    },
    {
      "type": "Feature",
      "properties": {
        "postcode": "53854",
        "settlementName": "с. Усть-Кам'янка"
      },
      "geometry": null
    },
    {
      "type": "Feature",
      "properties": {
        "postcode": "53855",
        "settlementName": "с-ще Гранітне"
      },
      "geometry": null
    },
    {
      "type": "Feature",
      "properties": {
        "postcode": "53860",
        "settlementName": "м. Зеленодольськ"
      },
      "geometry": null
    },
    {
      "type": "Feature",
      "properties": {
        "postcode": "53800",
        "settlementName": "м. Апостолове"
      },
      "geometry": null
    },
    {
      "type": "Feature",
      "properties": {
        "postcode": "53801",
        "settlementName": "м. Апостолове"
      },
      "geometry": null
    },
    {
      "type": "Feature",
      "properties": {
        "postcode": "53802",
        "settlementName": "м. Апостолове"
      },
      "geometry": null
    },
    {
      "type": "Feature",
      "properties": {
        "postcode": "53803",
        "settlementName": "м. Апостолове"
      },
      "geometry": null
    },
    {
      "type": "Feature",
      "properties": {
        "postcode": "53804",
        "settlementName": "м. Апостолове"
      },
      "geometry": null
    },
    {
      "type": "Feature",
      "properties": {
        "postcode": "53861",
        "settlementName": "с. Велика Долина"
      },
      "geometry": null
    }
  ]
}